{
"type": "FeatureCollection",
"name": "03_TopUbicaciones_AGEB_PuebloNuevo",
"crs": { "type": "name", "properties": { "name": "urn:ogc:def:crs:OGC:1.3:CRS84" } },
"features": [
{ "type": "Feature", "properties": { "CVEGEO_1": "190060001030A", "Score_Final": 73.137735691230844, "Clasificacion": "Bueno", "Comp_NSE": 87.631735400783342, "Comp_Competencia": 50, "Comp_Accesibilidad": 99.833141504783384, "Comp_Flujo": 50, "Indice_NSE_2025": 79.665214000712126, "Nivel_NSE": "C+", "NSE_Indice_Original": 73.764087037696413, "NSE_Nivel_Original": "A/B", "Carnicerias_1km": 30, "Carnicerias_500m": 13, "Carnicerias_2km": 69, "Dist_Competidor_m": 0.0, "Densidad_Competencia_1km": 9.5492965855137211, "Densidad_Competencia_500m": 16.552114081557114, "Densidad_Pobl_2025": 5517.6471777655033, "Densidad_Pobl_2010": 4414.1177422124028, "Tasa_Crecimiento_Pobl": 0.25, "Porcentaje_Mujeres": 6.1189559264013687, "Poblacion_Total_2010": 2337, "Poblacion_Total_2025": 2921.25, "Num_Cadenas_2km": 35, "Tiene_Cadena_Cerca": 1, "HHI_Concentracion": 409.57781978575929, "Intensidad_Competitiva": 45.25, "Educacion_Normalizado": 64.179104477611943, "Vivienda_Normalizado": 98.360137635200402, "Activos_Normalizado": 67.720183486238525, "Economico_Normalizado": 64.951377070265494, "CVEGEO_2": "1900600010009", "CVE_ENT": "19", "CVE_MUN": "006", "CVE_LOC": "0001", "CVE_ASEN": "0009", "CP": "66640", "FECHA_ACT": "11/2024", "INSTITUCIO": "SECRETARÍA DE DESARROLLO URBANO, OBRAS PÚBLICAS, ECOLOGÍA Y TRANSPORTE DE APODACA", "NOM_ASEN": "BALCONES DE HUINALÁ PRIMER SECTOR", "TIPO": "COLONIA", "Shape_Leng": 1175.1412613, "Shape_Area": 78843.172000699997 }, "geometry": { "type": "Polygon", "coordinates": [ [ [ -100.167582425709952, 25.736757317874687 ], [ -100.167570205562029, 25.736761824896831 ], [ -100.167504066665941, 25.736786218175151 ], [ -100.167416911899267, 25.736818362445696 ], [ -100.167371966412759, 25.736833887838472 ], [ -100.167405575917982, 25.737038364936133 ], [ -100.167569236666779, 25.738239880660373 ], [ -100.167637340661031, 25.738198825577523 ], [ -100.167725557343488, 25.738191113531062 ], [ -100.167732794696406, 25.73819048082985 ], [ -100.167995850718626, 25.738167483713962 ], [ -100.168166080996286, 25.739321571682876 ], [ -100.167964748410427, 25.73946610660845 ], [ -100.167958724299396, 25.73947043124474 ], [ -100.167707807992528, 25.73965056102017 ], [ -100.167854462620852, 25.740427641021618 ], [ -100.167855650789079, 25.740433936777698 ], [ -100.167755741454513, 25.74046299533088 ], [ -100.167459068219245, 25.740549282030781 ], [ -100.167159968273396, 25.740633207531104 ], [ -100.166870313974428, 25.740714481958438 ], [ -100.16686206235093, 25.740716951353754 ], [ -100.166006746350973, 25.74097291471945 ], [ -100.166003111684716, 25.740967312558933 ], [ -100.165738635439851, 25.740559671726231 ], [ -100.165545878350017, 25.740228676252254 ], [ -100.165599971820768, 25.739926852766008 ], [ -100.165618882933458, 25.739536101620178 ], [ -100.165610817141641, 25.739532573327029 ], [ -100.165539484670177, 25.739501369711043 ], [ -100.16545505001271, 25.739528222425538 ], [ -100.165049841301226, 25.739652030753767 ], [ -100.165048925611089, 25.739645570975696 ], [ -100.164915823879269, 25.738706598709765 ], [ -100.16480357569796, 25.737945753027965 ], [ -100.164617108120268, 25.738009262582992 ], [ -100.164405348705515, 25.738079751468845 ], [ -100.164361358955176, 25.737834543461215 ], [ -100.164248677772065, 25.737880658830527 ], [ -100.164100255684417, 25.737514823354395 ], [ -100.164506219858069, 25.737348825757152 ], [ -100.164515318606817, 25.737373096623699 ], [ -100.164665021312743, 25.737709518051343 ], [ -100.164686811881012, 25.737754208834321 ], [ -100.166304251656712, 25.737198451343314 ], [ -100.16643198484185, 25.7371521109675 ], [ -100.166545373892191, 25.737112412438737 ], [ -100.167313034060598, 25.736846458030339 ], [ -100.167363937922971, 25.736829601701775 ], [ -100.167408882542588, 25.736814076814987 ], [ -100.167496037284479, 25.736781932335873 ], [ -100.16757439579473, 25.73675303107888 ], [ -100.167577896405959, 25.736567356878673 ], [ -100.167576791922471, 25.736527101703029 ], [ -100.167584704372629, 25.736527131780328 ], [ -100.167584821172582, 25.736531388267046 ], [ -100.167585925793034, 25.73657164339123 ], [ -100.167582425709952, 25.736757317874687 ] ] ] } },
{ "type": "Feature", "properties": { "CVEGEO_1": "1900600010297", "Score_Final": 72.98775083796032, "Clasificacion": "Bueno", "Comp_NSE": 87.405762195756409, "Comp_Competencia": 50, "Comp_Accesibilidad": 99.478670347227876, "Comp_Flujo": 50, "Indice_NSE_2025": 79.459783814323998, "Nivel_NSE": "C+", "NSE_Indice_Original": 73.573873902151846, "NSE_Nivel_Original": "A/B", "Carnicerias_1km": 24, "Carnicerias_500m": 14, "Carnicerias_2km": 75, "Dist_Competidor_m": 0.0, "Densidad_Competencia_1km": 7.6394372684109761, "Densidad_Competencia_500m": 17.82535362629228, "Densidad_Pobl_2025": 18614.313727104407, "Densidad_Pobl_2010": 14891.450981683525, "Tasa_Crecimiento_Pobl": 0.25, "Porcentaje_Mujeres": 5.241935483870968, "Poblacion_Total_2010": 6200, "Poblacion_Total_2025": 7750.0, "Num_Cadenas_2km": 34, "Tiene_Cadena_Cerca": 1, "HHI_Concentracion": 339.55555555555549, "Intensidad_Competitiva": 44.75, "Educacion_Normalizado": 64.179104477611943, "Vivienda_Normalizado": 98.131474241310684, "Activos_Normalizado": 69.38990825688073, "Economico_Normalizado": 62.198984671602055, "CVEGEO_2": "1900600010009", "CVE_ENT": "19", "CVE_MUN": "006", "CVE_LOC": "0001", "CVE_ASEN": "0009", "CP": "66640", "FECHA_ACT": "11/2024", "INSTITUCIO": "SECRETARÍA DE DESARROLLO URBANO, OBRAS PÚBLICAS, ECOLOGÍA Y TRANSPORTE DE APODACA", "NOM_ASEN": "BALCONES DE HUINALÁ PRIMER SECTOR", "TIPO": "COLONIA", "Shape_Leng": 1175.1412613, "Shape_Area": 78843.172000699997 }, "geometry": { "type": "Polygon", "coordinates": [ [ [ -100.172859787005137, 25.736997533324814 ], [ -100.172062290748897, 25.737471097581697 ], [ -100.171646929346352, 25.737732046640694 ], [ -100.171646191202868, 25.737732648972091 ], [ -100.171483053130075, 25.737865771035096 ], [ -100.171114122603285, 25.738149237567416 ], [ -100.170913173455787, 25.738306002636993 ], [ -100.170632807902095, 25.738525722941858 ], [ -100.170436050310585, 25.738679919546712 ], [ -100.170281285334454, 25.738801141350827 ], [ -100.17027667211309, 25.738804749371084 ], [ -100.170091243512488, 25.738949773876694 ], [ -100.169628355746894, 25.739312038151578 ], [ -100.169366748525661, 25.739509264477086 ], [ -100.169119404317527, 25.739697518479577 ], [ -100.169112790613511, 25.739702552156338 ], [ -100.168956490290412, 25.73982151201642 ], [ -100.168445124426611, 25.740199755008529 ], [ -100.168187910732186, 25.740336417288507 ], [ -100.168117824854463, 25.740356987817165 ], [ -100.167855650789079, 25.740433936777698 ], [ -100.167854462620852, 25.740427641021618 ], [ -100.167707807992528, 25.73965056102017 ], [ -100.167958724299396, 25.73947043124474 ], [ -100.167964748410427, 25.73946610660845 ], [ -100.168166080996286, 25.739321571682876 ], [ -100.167995850718626, 25.738167483713962 ], [ -100.167732794696406, 25.73819048082985 ], [ -100.167725557343488, 25.738191113531062 ], [ -100.167637340661031, 25.738198825577523 ], [ -100.167569236666779, 25.738239880660373 ], [ -100.167405575917982, 25.737038364936133 ], [ -100.167371966412759, 25.736833887838472 ], [ -100.167416911899267, 25.736818362445696 ], [ -100.167504066665941, 25.736786218175151 ], [ -100.167570205562029, 25.736761824896831 ], [ -100.167582425709952, 25.736757317874687 ], [ -100.167585925793034, 25.73657164339123 ], [ -100.167584821172582, 25.736531388267046 ], [ -100.167584704372629, 25.736527131780328 ], [ -100.167802530231185, 25.736527959793555 ], [ -100.169289863028325, 25.736548856598489 ], [ -100.169523564609335, 25.736965855077482 ], [ -100.169748475814771, 25.737367170774768 ], [ -100.169978958652692, 25.737778416886314 ], [ -100.170040865108803, 25.737888877274766 ], [ -100.170066289987048, 25.73791641958622 ], [ -100.170296171643045, 25.738165455230838 ], [ -100.170324145411826, 25.738195760682583 ], [ -100.170351152561494, 25.738225017336941 ], [ -100.170591769182863, 25.738485679249958 ], [ -100.17062477764523, 25.738521435902364 ], [ -100.170905143417613, 25.738301716676041 ], [ -100.171106091449417, 25.738144951464548 ], [ -100.171475022332217, 25.737861484341799 ], [ -100.17163889818093, 25.737727760161015 ], [ -100.172054260456903, 25.737466811936262 ], [ -100.172851755794952, 25.736993247975651 ], [ -100.174020114767089, 25.736312289217768 ], [ -100.174258814352299, 25.736279136703455 ], [ -100.174266685469718, 25.736278085486973 ], [ -100.174266844870345, 25.736283423341675 ], [ -100.174028146465702, 25.736316575847894 ], [ -100.172859787005137, 25.736997533324814 ] ] ] } },
{ "type": "Feature", "properties": { "CVEGEO_1": "190060001151A", "Score_Final": 72.604391798628924, "Clasificacion": "Bueno", "Comp_NSE": 86.362065927437897, "Comp_Competencia": 50, "Comp_Accesibilidad": 99.388343620128353, "Comp_Flujo": 50, "Indice_NSE_2025": 78.510969024943535, "Nivel_NSE": "C+", "NSE_Indice_Original": 72.695341689762529, "NSE_Nivel_Original": "A/B", "Carnicerias_1km": 25, "Carnicerias_500m": 12, "Carnicerias_2km": 74, "Dist_Competidor_m": 0.0, "Densidad_Competencia_1km": 7.9577471545947667, "Densidad_Competencia_500m": 15.278874536821952, "Densidad_Pobl_2025": 19747.1458822774, "Densidad_Pobl_2010": 15797.71670582192, "Tasa_Crecimiento_Pobl": 0.25, "Porcentaje_Mujeres": 4.673889951136605, "Poblacion_Total_2010": 4707, "Poblacion_Total_2025": 5883.75, "Num_Cadenas_2km": 36, "Tiene_Cadena_Cerca": 1, "HHI_Concentracion": 336.01168736303879, "Intensidad_Competitiva": 43.0, "Educacion_Normalizado": 58.208955223880587, "Vivienda_Normalizado": 98.642767845918897, "Activos_Normalizado": 70.89908256880733, "Economico_Normalizado": 64.235962594584024, "CVEGEO_2": "1900600010309", "CVE_ENT": "19", "CVE_MUN": "006", "CVE_LOC": "0001", "CVE_ASEN": "0309", "CP": "66634", "FECHA_ACT": "11/2024", "INSTITUCIO": "SECRETARÍA DE DESARROLLO URBANO, OBRAS PÚBLICAS, ECOLOGÍA Y TRANSPORTE DE APODACA", "NOM_ASEN": "ENCINOS RESIDENCIAL PRIMER SECTOR", "TIPO": "FRACCIONAMIENTO", "Shape_Leng": 3544.9831589599999, "Shape_Area": 441291.76764699997 }, "geometry": { "type": "MultiPolygon", "coordinates": [ [ [ [ -100.177737530985496, 25.733435293706037 ], [ -100.177726610507122, 25.733433852634732 ], [ -100.177729499138593, 25.733431008096524 ], [ -100.177862704179915, 25.73344833585503 ], [ -100.177871223333597, 25.733449443146391 ], [ -100.17787073614727, 25.733452620009526 ], [ -100.177737530985496, 25.733435293706037 ] ] ], [ [ [ -100.177043717958512, 25.73413338514947 ], [ -100.177022050871258, 25.734157333389291 ], [ -100.176919438896775, 25.734265950794168 ], [ -100.176809389968909, 25.734374642720329 ], [ -100.176697887863739, 25.734478006752404 ], [ -100.17654762311561, 25.734606043850796 ], [ -100.176429918445038, 25.734704622467369 ], [ -100.176348603833972, 25.734777626754617 ], [ -100.176234933102094, 25.734887301071026 ], [ -100.176143892457176, 25.734983054151414 ], [ -100.176051922875473, 25.73508634161864 ], [ -100.176032415576572, 25.73510968759577 ], [ -100.176014177407993, 25.735131514696192 ], [ -100.175946074889538, 25.735215665207051 ], [ -100.17589204871004, 25.735297964961219 ], [ -100.175828776751388, 25.735413823669333 ], [ -100.175774769369369, 25.735527245148997 ], [ -100.175739269697658, 25.735611917468194 ], [ -100.175694108845406, 25.735736540583098 ], [ -100.175659572169593, 25.735851499475537 ], [ -100.175630283134467, 25.73597257380904 ], [ -100.175600173325932, 25.736127246952591 ], [ -100.175594413429508, 25.736126494211621 ], [ -100.17559214182738, 25.736122961664712 ], [ -100.175622251817316, 25.735968287265006 ], [ -100.175651541318842, 25.735847213690828 ], [ -100.175686078431383, 25.735732253971666 ], [ -100.17573123798968, 25.735607631753812 ], [ -100.175766737569603, 25.735522959213412 ], [ -100.175820744357083, 25.735409538919203 ], [ -100.175884018302398, 25.735293680277234 ], [ -100.175938044527072, 25.735211379806739 ], [ -100.176006146435654, 25.735127229703146 ], [ -100.176024384171825, 25.735105402975467 ], [ -100.176043891002465, 25.735082056196386 ], [ -100.176135860680432, 25.734978769049633 ], [ -100.17622690127611, 25.734883015687238 ], [ -100.176340572714594, 25.734773340842025 ], [ -100.176421886416023, 25.734700337533614 ], [ -100.176539591649245, 25.734601758242764 ], [ -100.176689855283044, 25.734473722071836 ], [ -100.176801358496135, 25.734370356491379 ], [ -100.176911408121896, 25.734261666238361 ], [ -100.17701401813504, 25.734153048067103 ], [ -100.177035686093006, 25.734129100193169 ], [ -100.177060322216747, 25.734101868628127 ], [ -100.17713960246941, 25.734011865817028 ], [ -100.177147337845213, 25.734014966161038 ], [ -100.177150301702326, 25.734011986818604 ], [ -100.177147635052179, 25.734016151821262 ], [ -100.177068354890949, 25.734106154378203 ], [ -100.177043717958512, 25.73413338514947 ] ] ], [ [ [ -100.174266685469718, 25.736278085486973 ], [ -100.174486600024665, 25.736248715094884 ], [ -100.175306162956133, 25.736270529872009 ], [ -100.175315096446099, 25.736271146200394 ], [ -100.17531419440698, 25.736274815467912 ], [ -100.174494631363046, 25.736253000258372 ], [ -100.174266844870345, 25.736283423341675 ], [ -100.174266685469718, 25.736278085486973 ] ] ] ] } },
{ "type": "Feature", "properties": { "CVEGEO_1": "1900600012363", "Score_Final": 72.588415932355048, "Clasificacion": "Bueno", "Comp_NSE": 86.494684187923383, "Comp_Competencia": 50, "Comp_Accesibilidad": 99.076382332909347, "Comp_Flujo": 50, "Indice_NSE_2025": 78.63153107993034, "Nivel_NSE": "C+", "NSE_Indice_Original": 72.806973222157723, "NSE_Nivel_Original": "A/B", "Carnicerias_1km": 12, "Carnicerias_500m": 10, "Carnicerias_2km": 30, "Dist_Competidor_m": 0.0, "Densidad_Competencia_1km": 3.8197186342054881, "Densidad_Competencia_500m": 12.732395447351628, "Densidad_Pobl_2025": 10525.952686059989, "Densidad_Pobl_2010": 8420.7621488479908, "Tasa_Crecimiento_Pobl": 0.25, "Porcentaje_Mujeres": 10.46373365041617, "Poblacion_Total_2010": 2523, "Poblacion_Total_2025": 3153.75, "Num_Cadenas_2km": 9, "Tiene_Cadena_Cerca": 1, "HHI_Concentracion": 488.88888888888891, "Intensidad_Competitiva": 23.5, "Educacion_Normalizado": 71.268656716417908, "Vivienda_Normalizado": 98.657950752376252, "Activos_Normalizado": 55.252293577981646, "Economico_Normalizado": 64.744075623214343, "CVEGEO_2": "1900600010286", "CVE_ENT": "19", "CVE_MUN": "006", "CVE_LOC": "0001", "CVE_ASEN": "0286", "CP": "66643", "FECHA_ACT": "11/2024", "INSTITUCIO": "SECRETARÍA DE DESARROLLO URBANO, OBRAS PÚBLICAS, ECOLOGÍA Y TRANSPORTE DE APODACA", "NOM_ASEN": "PARQUE INDUSTRIAL LA SILLA", "TIPO": "ZONA INDUSTRIAL", "Shape_Leng": 3771.6716592500002, "Shape_Area": 826957.068295 }, "geometry": { "type": "Polygon", "coordinates": [ [ [ -100.142373338910602, 25.761616166107551 ], [ -100.142600680623687, 25.761825848205063 ], [ -100.142604245649494, 25.761829136304186 ], [ -100.142643950180016, 25.761838077435392 ], [ -100.142647717705415, 25.761838925850888 ], [ -100.142954888966855, 25.762045109214153 ], [ -100.142971816184982, 25.762056471314722 ], [ -100.143185034087381, 25.761954124827621 ], [ -100.143306718751433, 25.762113341560159 ], [ -100.144266529881577, 25.763395126609367 ], [ -100.144445014232346, 25.763623416139009 ], [ -100.144040423462911, 25.763777273382054 ], [ -100.143634759149208, 25.763919237235477 ], [ -100.143437010257387, 25.764014351348159 ], [ -100.143241752818412, 25.764102199972424 ], [ -100.142782413621973, 25.764182588256219 ], [ -100.142614578768274, 25.764164903210673 ], [ -100.142191935750233, 25.764119381698965 ], [ -100.141648954525436, 25.764080808354588 ], [ -100.142164437813065, 25.764755330283624 ], [ -100.141820743953474, 25.764975345952987 ], [ -100.141465700742174, 25.765197265852496 ], [ -100.141086959533652, 25.765431596612132 ], [ -100.140706661341511, 25.765660033628912 ], [ -100.140349236547195, 25.765874908226589 ], [ -100.140008503159478, 25.766095182203667 ], [ -100.139655038221221, 25.766304102224932 ], [ -100.139213279614921, 25.76655457219103 ], [ -100.138563786236048, 25.765707640115409 ], [ -100.138319406016365, 25.764720069751455 ], [ -100.138332361538673, 25.764698871813508 ], [ -100.138370238503683, 25.764636903043606 ], [ -100.138286874116503, 25.764588604364359 ], [ -100.138262585730033, 25.764490452023296 ], [ -100.138740720423513, 25.764084948656848 ], [ -100.1388191176097, 25.76399687267206 ], [ -100.13937004764756, 25.763377925641024 ], [ -100.139635699940186, 25.763336315072213 ], [ -100.139448962798198, 25.763129252836986 ], [ -100.139337365367368, 25.763005508769641 ], [ -100.139028225013988, 25.762701380758994 ], [ -100.138650964709669, 25.762329739191649 ], [ -100.138338546881599, 25.762022876728714 ], [ -100.138175452766987, 25.76186191645203 ], [ -100.137694409286595, 25.761389165155439 ], [ -100.137543786012785, 25.761238374283653 ], [ -100.137435400736834, 25.761085653271699 ], [ -100.13728872356873, 25.760786336261056 ], [ -100.137075244360815, 25.760264223207532 ], [ -100.136999679513494, 25.760079410557452 ], [ -100.137077909829145, 25.760044014665908 ], [ -100.137111346057665, 25.760136421427841 ], [ -100.137144751795773, 25.760246244709641 ], [ -100.137400645020293, 25.760697051570869 ], [ -100.137718253780832, 25.761057872836528 ], [ -100.138003488487328, 25.761347759151668 ], [ -100.138334416417095, 25.761666979179765 ], [ -100.138379819468227, 25.761716468091088 ], [ -100.138588863609428, 25.761536429973702 ], [ -100.139271683537061, 25.760945610266184 ], [ -100.139568773857263, 25.760686771210686 ], [ -100.13990249414806, 25.760435459958092 ], [ -100.140270403980892, 25.760228771084677 ], [ -100.140603756784344, 25.759939218529013 ], [ -100.140540282229949, 25.759880282926563 ], [ -100.140611790482794, 25.759944453202504 ], [ -100.140834783259734, 25.760139109180823 ], [ -100.142373338910602, 25.761616166107551 ] ] ] } },
{ "type": "Feature", "properties": { "CVEGEO_1": "1900600011420", "Score_Final": 72.502495693989744, "Clasificacion": "Bueno", "Comp_NSE": 86.287898471003913, "Comp_Competencia": 50, "Comp_Accesibilidad": 99.00865614569183, "Comp_Flujo": 50, "Indice_NSE_2025": 78.443544064549002, "Nivel_NSE": "C+", "NSE_Indice_Original": 72.6329111708787, "NSE_Nivel_Original": "A/B", "Carnicerias_1km": 23, "Carnicerias_500m": 9, "Carnicerias_2km": 46, "Dist_Competidor_m": 0.0, "Densidad_Competencia_1km": 7.3211273822271856, "Densidad_Competencia_500m": 11.459155902616464, "Densidad_Pobl_2025": 10247.706659757552, "Densidad_Pobl_2010": 8198.1653278060421, "Tasa_Crecimiento_Pobl": 0.25, "Porcentaje_Mujeres": 7.2862453531598508, "Poblacion_Total_2010": 4035, "Poblacion_Total_2025": 5043.75, "Num_Cadenas_2km": 22, "Tiene_Cadena_Cerca": 1, "HHI_Concentracion": 491.49338374291113, "Intensidad_Competitiva": 32.0, "Educacion_Normalizado": 56.71641791044776, "Vivienda_Normalizado": 97.779282450988845, "Activos_Normalizado": 72.844036697247716, "Economico_Normalizado": 64.810780053426143, "CVEGEO_2": "1900600010071", "CVE_ENT": "19", "CVE_MUN": "006", "CVE_LOC": "0001", "CVE_ASEN": "0071", "CP": "66640", "FECHA_ACT": "11/2024", "INSTITUCIO": "SECRETARÍA DE DESARROLLO URBANO, OBRAS PÚBLICAS, ECOLOGÍA Y TRANSPORTE DE APODACA", "NOM_ASEN": "HUINALÁ", "TIPO": "COLONIA", "Shape_Leng": 7098.8413938399999, "Shape_Area": 975235.65223200002 }, "geometry": { "type": "Polygon", "coordinates": [ [ [ -100.159117008587799, 25.74744903193109 ], [ -100.15918558628789, 25.74740361192449 ], [ -100.159489519284506, 25.747088182382562 ], [ -100.159662347717997, 25.746908815337704 ], [ -100.160472684365686, 25.746627186111006 ], [ -100.160427054969915, 25.746541498158425 ], [ -100.160545830174968, 25.746396600034718 ], [ -100.160974443874821, 25.745875723862504 ], [ -100.16097921061268, 25.745869931046812 ], [ -100.161139191465736, 25.746365218857733 ], [ -100.161279460653077, 25.746720702541609 ], [ -100.161515558385446, 25.747276720720095 ], [ -100.16183609668191, 25.747770958339437 ], [ -100.162157584488185, 25.748202331840968 ], [ -100.162441541916365, 25.748492197289679 ], [ -100.162747131074624, 25.748768446615323 ], [ -100.163102075470931, 25.749035295868559 ], [ -100.163329842769201, 25.749185522822579 ], [ -100.163337462904806, 25.749190548784469 ], [ -100.163187818687646, 25.749476825371701 ], [ -100.162769952830104, 25.750236152967609 ], [ -100.163521668163199, 25.750545019447614 ], [ -100.163590489952384, 25.751413189658138 ], [ -100.163614216497848, 25.7514994992206 ], [ -100.163648537778897, 25.751770711233501 ], [ -100.16367455188319, 25.751819378392106 ], [ -100.163790678157369, 25.752751797804674 ], [ -100.163794317522886, 25.753007126337511 ], [ -100.163934947593503, 25.754194062133067 ], [ -100.164022137807208, 25.754914608494843 ], [ -100.164022986529403, 25.754921622397713 ], [ -100.163948102589629, 25.754947436658753 ], [ -100.163717795511559, 25.755032173798149 ], [ -100.163478316000209, 25.755079460820056 ], [ -100.163226166237266, 25.755102804744268 ], [ -100.162990382217174, 25.755134089753764 ], [ -100.162158966101998, 25.755238240561948 ], [ -100.161160646503859, 25.755430451690845 ], [ -100.160738744147594, 25.755514242725866 ], [ -100.159873753927542, 25.755680003800279 ], [ -100.15950819289823, 25.755749473607661 ], [ -100.15950376540485, 25.755744499282365 ], [ -100.159346031123491, 25.755567283517497 ], [ -100.159039141733629, 25.755221445083951 ], [ -100.158735774211678, 25.754879023283376 ], [ -100.158462438419761, 25.754571980403018 ], [ -100.158104687716204, 25.75415933142077 ], [ -100.15780206843236, 25.753834053248479 ], [ -100.157437948538544, 25.753415888739692 ], [ -100.156885914894787, 25.752776647748981 ], [ -100.157470545633799, 25.75241372196967 ], [ -100.158036938938224, 25.75197589431405 ], [ -100.158223739472788, 25.751816412210484 ], [ -100.158605979022383, 25.751458010263693 ], [ -100.158600861505178, 25.751451341815926 ], [ -100.158249857107805, 25.7509939609421 ], [ -100.15722778378813, 25.750171085635994 ], [ -100.157682951225397, 25.749757456706398 ], [ -100.15768806192591, 25.749745606946149 ], [ -100.157748670367752, 25.749605077817471 ], [ -100.157796119177135, 25.749300988789148 ], [ -100.157793777994826, 25.749070287502267 ], [ -100.157772214239287, 25.74902543860831 ], [ -100.15771376887038, 25.748903882121159 ], [ -100.157711492035688, 25.748898176929462 ], [ -100.157706377640309, 25.748885361503675 ], [ -100.157676023466493, 25.748809301357205 ], [ -100.157598988316849, 25.748616268601587 ], [ -100.157698521401201, 25.74837524343091 ], [ -100.157763694168622, 25.748217424149129 ], [ -100.157884775327105, 25.74805008192353 ], [ -100.157896308092646, 25.748034142844592 ], [ -100.158190758470624, 25.747793893277265 ], [ -100.158403184295466, 25.747756770939528 ], [ -100.158647015635864, 25.747689347125291 ], [ -100.158685430112769, 25.747678724830511 ], [ -100.158704754164077, 25.747673381382263 ], [ -100.158732301328229, 25.747659513039679 ], [ -100.158767437436666, 25.747641824119462 ], [ -100.159011235627943, 25.747519086373405 ], [ -100.159117008587799, 25.74744903193109 ] ] ] } }
]
}
