{
"type": "FeatureCollection",
"name": "04_Carnicerias_Existentes_PuebloNuevo",
"crs": { "type": "name", "properties": { "name": "urn:ogc:def:crs:OGC:1.3:CRS84" } },
"features": [
{ "type": "Feature", "properties": { "nom_estab": "DEPOSITO Y CARNICERIA SONORA", "codigo_act": "461121", "nombre_act": "Comercio al por menor de carnes rojas", "CVEGEO": "1900600010010", "CVE_ENT": "19", "CVE_MUN": "006", "CVE_LOC": "0001", "CVE_ASEN": "0010", "CP": "66640", "FECHA_ACT": "11/2024", "INSTITUCIO": "SECRETARÍA DE DESARROLLO URBANO, OBRAS PÚBLICAS, ECOLOGÍA Y TRANSPORTE DE APODACA", "NOM_ASEN": "BALCONES DE HUINALÁ SEGUNDO SECTOR", "TIPO": "COLONIA", "Shape_Leng": 1454.20186195, "Shape_Area": 104673.481705 }, "geometry": { "type": "Point", "coordinates": [ -100.16655543, 25.73885888 ] } },
{ "type": "Feature", "properties": { "nom_estab": "CARNICERIA GUAJARDO", "codigo_act": "461121", "nombre_act": "Comercio al por menor de carnes rojas", "CVEGEO": "1900600010017", "CVE_ENT": "19", "CVE_MUN": "006", "CVE_LOC": "0001", "CVE_ASEN": "0017", "CP": "66600", "FECHA_ACT": "11/2024", "INSTITUCIO": "SECRETARÍA DE DESARROLLO URBANO, OBRAS PÚBLICAS, ECOLOGÍA Y TRANSPORTE DE APODACA", "NOM_ASEN": "CABECERA MUNICIPAL (APODACA)", "TIPO": "COLONIA", "Shape_Leng": 10463.263806000001, "Shape_Area": 1836887.27205 }, "geometry": { "type": "Point", "coordinates": [ -100.18766633, 25.779165200000048 ] } },
{ "type": "Feature", "properties": { "nom_estab": "CARNICERIA LA FAMA", "codigo_act": "461121", "nombre_act": "Comercio al por menor de carnes rojas", "CVEGEO": "1900600010173", "CVE_ENT": "19", "CVE_MUN": "006", "CVE_LOC": "0001", "CVE_ASEN": "0173", "CP": "66646", "FECHA_ACT": "11/2024", "INSTITUCIO": "SECRETARÍA DE DESARROLLO URBANO, OBRAS PÚBLICAS, ECOLOGÍA Y TRANSPORTE DE APODACA", "NOM_ASEN": "PUEBLO NUEVO TERCER SECTOR", "TIPO": "COLONIA", "Shape_Leng": 2765.7195235700001, "Shape_Area": 317270.33355500002 }, "geometry": { "type": "Point", "coordinates": [ -100.16181236, 25.76077737 ] } },
{ "type": "Feature", "properties": { "nom_estab": "CARNICERIA LA MORITA", "codigo_act": "461121", "nombre_act": "Comercio al por menor de carnes rojas", "CVEGEO": "1900600010131", "CVE_ENT": "19", "CVE_MUN": "006", "CVE_LOC": "0001", "CVE_ASEN": "0131", "CP": "66646", "FECHA_ACT": "11/2024", "INSTITUCIO": "SECRETARÍA DE DESARROLLO URBANO, OBRAS PÚBLICAS, ECOLOGÍA Y TRANSPORTE DE APODACA", "NOM_ASEN": "MISIÓN DE HUINALÁ PRIMER SECTOR", "TIPO": "COLONIA", "Shape_Leng": 2224.14206251, "Shape_Area": 172671.360579 }, "geometry": { "type": "Point", "coordinates": [ -100.16072747, 25.75477148 ] } },
{ "type": "Feature", "properties": { "nom_estab": "QUE POLLO LAS FLORES", "codigo_act": "461122", "nombre_act": "Comercio al por menor de carne de aves", "CVEGEO": "1900600010443", "CVE_ENT": "19", "CVE_MUN": "006", "CVE_LOC": "0001", "CVE_ASEN": "0443", "CP": "66643", "FECHA_ACT": "11/2024", "INSTITUCIO": "SECRETARÍA DE DESARROLLO URBANO, OBRAS PÚBLICAS, ECOLOGÍA Y TRANSPORTE DE APODACA", "NOM_ASEN": "PASEO DE LAS FLORES TERCER SECTOR", "TIPO": "FRACCIONAMIENTO", "Shape_Leng": 2308.0234209099999, "Shape_Area": 202943.37431300001 }, "geometry": { "type": "Point", "coordinates": [ -100.13862265, 25.76228623 ] } },
{ "type": "Feature", "properties": { "nom_estab": "ARTICULOS PARA LIMPIEZA", "codigo_act": "431110", "nombre_act": "Comercio al por mayor de abarrotes", "CVEGEO": "1900600010288", "CVE_ENT": "19", "CVE_MUN": "006", "CVE_LOC": "0001", "CVE_ASEN": "0288", "CP": "66646", "FECHA_ACT": "11/2024", "INSTITUCIO": "SECRETARÍA DE DESARROLLO URBANO, OBRAS PÚBLICAS, ECOLOGÍA Y TRANSPORTE DE APODACA", "NOM_ASEN": "TRÉBOLES", "TIPO": "COLONIA", "Shape_Leng": 5089.2168142500004, "Shape_Area": 727381.484131 }, "geometry": { "type": "Point", "coordinates": [ -100.14065261, 25.7634445 ] } },
{ "type": "Feature", "properties": { "nom_estab": "QUE POLLO PORTALES", "codigo_act": "461122", "nombre_act": "Comercio al por menor de carne de aves", "CVEGEO": "1900600010164", "CVE_ENT": "19", "CVE_MUN": "006", "CVE_LOC": "0001", "CVE_ASEN": "0164", "CP": "66646", "FECHA_ACT": "11/2024", "INSTITUCIO": "SECRETARÍA DE DESARROLLO URBANO, OBRAS PÚBLICAS, ECOLOGÍA Y TRANSPORTE DE APODACA", "NOM_ASEN": "PORTAL DE HUINALÁ", "TIPO": "COLONIA", "Shape_Leng": 1920.8607418199999, "Shape_Area": 200694.46565599999 }, "geometry": { "type": "Point", "coordinates": [ -100.157883860000013, 25.755083610000053 ] } },
{ "type": "Feature", "properties": { "nom_estab": "SUPER Y CARNES MELENDEZ", "codigo_act": "461121", "nombre_act": "Comercio al por menor de carnes rojas", "CVEGEO": "1900600010009", "CVE_ENT": "19", "CVE_MUN": "006", "CVE_LOC": "0001", "CVE_ASEN": "0009", "CP": "66640", "FECHA_ACT": "11/2024", "INSTITUCIO": "SECRETARÍA DE DESARROLLO URBANO, OBRAS PÚBLICAS, ECOLOGÍA Y TRANSPORTE DE APODACA", "NOM_ASEN": "BALCONES DE HUINALÁ PRIMER SECTOR", "TIPO": "COLONIA", "Shape_Leng": 1175.1412613, "Shape_Area": 78843.172000699997 }, "geometry": { "type": "Point", "coordinates": [ -100.16977991, 25.73750997 ] } },
{ "type": "Feature", "properties": { "nom_estab": "SUPER TORRE FUERTE", "codigo_act": "462111", "nombre_act": "Comercio al por menor en supermercados", "CVEGEO": "1900600010173", "CVE_ENT": "19", "CVE_MUN": "006", "CVE_LOC": "0001", "CVE_ASEN": "0173", "CP": "66646", "FECHA_ACT": "11/2024", "INSTITUCIO": "SECRETARÍA DE DESARROLLO URBANO, OBRAS PÚBLICAS, ECOLOGÍA Y TRANSPORTE DE APODACA", "NOM_ASEN": "PUEBLO NUEVO TERCER SECTOR", "TIPO": "COLONIA", "Shape_Leng": 2765.7195235700001, "Shape_Area": 317270.33355500002 }, "geometry": { "type": "Point", "coordinates": [ -100.16102374, 25.76000375 ] } },
{ "type": "Feature", "properties": { "nom_estab": "CARNEMART", "codigo_act": "461121", "nombre_act": "Comercio al por menor de carnes rojas", "CVEGEO": "1900600010175", "CVE_ENT": "19", "CVE_MUN": "006", "CVE_LOC": "0001", "CVE_ASEN": "0175", "CP": "66646", "FECHA_ACT": "11/2024", "INSTITUCIO": "SECRETARÍA DE DESARROLLO URBANO, OBRAS PÚBLICAS, ECOLOGÍA Y TRANSPORTE DE APODACA", "NOM_ASEN": "PUEBLO NUEVO QUINTO SECTOR", "TIPO": "COLONIA", "Shape_Leng": 3083.1966139199999, "Shape_Area": 559003.02493399999 }, "geometry": { "type": "Point", "coordinates": [ -100.17127031, 25.75874831 ] } },
{ "type": "Feature", "properties": { "nom_estab": "QUE POLLO APODACA", "codigo_act": "461122", "nombre_act": "Comercio al por menor de carne de aves", "CVEGEO": "1900600010017", "CVE_ENT": "19", "CVE_MUN": "006", "CVE_LOC": "0001", "CVE_ASEN": "0017", "CP": "66600", "FECHA_ACT": "11/2024", "INSTITUCIO": "SECRETARÍA DE DESARROLLO URBANO, OBRAS PÚBLICAS, ECOLOGÍA Y TRANSPORTE DE APODACA", "NOM_ASEN": "CABECERA MUNICIPAL (APODACA)", "TIPO": "COLONIA", "Shape_Leng": 10463.263806000001, "Shape_Area": 1836887.27205 }, "geometry": { "type": "Point", "coordinates": [ -100.18505729, 25.779904199999969 ] } },
{ "type": "Feature", "properties": { "nom_estab": "BODEGA AURRERA EXPRESS VISTA BELLA 5144", "codigo_act": "462111", "nombre_act": "Comercio al por menor en supermercados", "CVEGEO": "1900600010484", "CVE_ENT": "19", "CVE_MUN": "006", "CVE_LOC": "0001", "CVE_ASEN": "0484", "CP": "66646", "FECHA_ACT": "11/2024", "INSTITUCIO": "SECRETARÍA DE DESARROLLO URBANO, OBRAS PÚBLICAS, ECOLOGÍA Y TRANSPORTE DE APODACA", "NOM_ASEN": "SANTA SOFÍA RESIDENCIAL", "TIPO": "FRACCIONAMIENTO", "Shape_Leng": 2021.37344033, "Shape_Area": 264068.92654299998 }, "geometry": { "type": "Point", "coordinates": [ -100.14935678, 25.75767448 ] } },
{ "type": "Feature", "properties": { "nom_estab": "BODEGA AURRERA EXPRESS SANTA SOFIA 4892", "codigo_act": "462111", "nombre_act": "Comercio al por menor en supermercados", "CVEGEO": "1900600010484", "CVE_ENT": "19", "CVE_MUN": "006", "CVE_LOC": "0001", "CVE_ASEN": "0484", "CP": "66646", "FECHA_ACT": "11/2024", "INSTITUCIO": "SECRETARÍA DE DESARROLLO URBANO, OBRAS PÚBLICAS, ECOLOGÍA Y TRANSPORTE DE APODACA", "NOM_ASEN": "SANTA SOFÍA RESIDENCIAL", "TIPO": "FRACCIONAMIENTO", "Shape_Leng": 2021.37344033, "Shape_Area": 264068.92654299998 }, "geometry": { "type": "Point", "coordinates": [ -100.14931234, 25.75294589 ] } },
{ "type": "Feature", "properties": { "nom_estab": "MAS POLLO 281 ORINOCO", "codigo_act": "431122", "nombre_act": "Comercio al por mayor de carne de aves", "CVEGEO": "1900600010175", "CVE_ENT": "19", "CVE_MUN": "006", "CVE_LOC": "0001", "CVE_ASEN": "0175", "CP": "66646", "FECHA_ACT": "11/2024", "INSTITUCIO": "SECRETARÍA DE DESARROLLO URBANO, OBRAS PÚBLICAS, ECOLOGÍA Y TRANSPORTE DE APODACA", "NOM_ASEN": "PUEBLO NUEVO QUINTO SECTOR", "TIPO": "COLONIA", "Shape_Leng": 3083.1966139199999, "Shape_Area": 559003.02493399999 }, "geometry": { "type": "Point", "coordinates": [ -100.15964446, 25.75575534 ] } },
{ "type": "Feature", "properties": { "nom_estab": "BODEGA PUEBLO NUEVO 2097", "codigo_act": "462111", "nombre_act": "Comercio al por menor en supermercados", "CVEGEO": "1900600010075", "CVE_ENT": "19", "CVE_MUN": "006", "CVE_LOC": "0001", "CVE_ASEN": "0075", "CP": "66645", "FECHA_ACT": "11/2024", "INSTITUCIO": "SECRETARÍA DE DESARROLLO URBANO, OBRAS PÚBLICAS, ECOLOGÍA Y TRANSPORTE DE APODACA", "NOM_ASEN": "PARQUE INDUSTRIAL EL HUINALÁ I", "TIPO": "ZONA INDUSTRIAL", "Shape_Leng": 1375.9022515300001, "Shape_Area": 118582.917023 }, "geometry": { "type": "Point", "coordinates": [ -100.1728463, 25.76003364 ] } },
{ "type": "Feature", "properties": { "nom_estab": "CONGELADOS VANNE", "codigo_act": "461122", "nombre_act": "Comercio al por menor de carne de aves", "CVEGEO": "1900600010131", "CVE_ENT": "19", "CVE_MUN": "006", "CVE_LOC": "0001", "CVE_ASEN": "0131", "CP": "66646", "FECHA_ACT": "11/2024", "INSTITUCIO": "SECRETARÍA DE DESARROLLO URBANO, OBRAS PÚBLICAS, ECOLOGÍA Y TRANSPORTE DE APODACA", "NOM_ASEN": "MISIÓN DE HUINALÁ PRIMER SECTOR", "TIPO": "COLONIA", "Shape_Leng": 2224.14206251, "Shape_Area": 172671.360579 }, "geometry": { "type": "Point", "coordinates": [ -100.15975292, 25.75463122999998 ] } },
{ "type": "Feature", "properties": { "nom_estab": "DELICARNES", "codigo_act": "461121", "nombre_act": "Comercio al por menor de carnes rojas", "CVEGEO": "1900600010017", "CVE_ENT": "19", "CVE_MUN": "006", "CVE_LOC": "0001", "CVE_ASEN": "0017", "CP": "66600", "FECHA_ACT": "11/2024", "INSTITUCIO": "SECRETARÍA DE DESARROLLO URBANO, OBRAS PÚBLICAS, ECOLOGÍA Y TRANSPORTE DE APODACA", "NOM_ASEN": "CABECERA MUNICIPAL (APODACA)", "TIPO": "COLONIA", "Shape_Leng": 10463.263806000001, "Shape_Area": 1836887.27205 }, "geometry": { "type": "Point", "coordinates": [ -100.19317581, 25.77791927 ] } },
{ "type": "Feature", "properties": { "nom_estab": "CARNICERIA LA PRINCIPAL", "codigo_act": "431121", "nombre_act": "Comercio al por mayor de carnes rojas", "CVEGEO": "1900600010017", "CVE_ENT": "19", "CVE_MUN": "006", "CVE_LOC": "0001", "CVE_ASEN": "0017", "CP": "66600", "FECHA_ACT": "11/2024", "INSTITUCIO": "SECRETARÍA DE DESARROLLO URBANO, OBRAS PÚBLICAS, ECOLOGÍA Y TRANSPORTE DE APODACA", "NOM_ASEN": "CABECERA MUNICIPAL (APODACA)", "TIPO": "COLONIA", "Shape_Leng": 10463.263806000001, "Shape_Area": 1836887.27205 }, "geometry": { "type": "Point", "coordinates": [ -100.18813687, 25.77992323 ] } },
{ "type": "Feature", "properties": { "nom_estab": "COMERCIALIZADORA MARCA", "codigo_act": "431110", "nombre_act": "Comercio al por mayor de abarrotes", "CVEGEO": "1900600010479", "CVE_ENT": "19", "CVE_MUN": "006", "CVE_LOC": "0001", "CVE_ASEN": "0479", "CP": "66626", "FECHA_ACT": "11/2024", "INSTITUCIO": "SECRETARÍA DE DESARROLLO URBANO, OBRAS PÚBLICAS, ECOLOGÍA Y TRANSPORTE DE APODACA", "NOM_ASEN": "PARQUE INDUSTRIAL STIVA", "TIPO": "ZONA INDUSTRIAL", "Shape_Leng": 10942.2945578, "Shape_Area": 5326225.1582000004 }, "geometry": { "type": "Point", "coordinates": [ -100.14918782, 25.781274 ] } },
{ "type": "Feature", "properties": { "nom_estab": "CARNES FINAS MARTINEZ", "codigo_act": "461121", "nombre_act": "Comercio al por menor de carnes rojas", "CVEGEO": "1900600010487", "CVE_ENT": "19", "CVE_MUN": "006", "CVE_LOC": "0001", "CVE_ASEN": "0487", "CP": "66646", "FECHA_ACT": "11/2024", "INSTITUCIO": "SECRETARÍA DE DESARROLLO URBANO, OBRAS PÚBLICAS, ECOLOGÍA Y TRANSPORTE DE APODACA", "NOM_ASEN": "PRIVALIA HUINALÁ SEXTO SECTOR", "TIPO": "FRACCIONAMIENTO", "Shape_Leng": 814.71610051799996, "Shape_Area": 39589.7920572 }, "geometry": { "type": "Point", "coordinates": [ -100.14672594000001, 25.752195759999985 ] } },
{ "type": "Feature", "properties": { "nom_estab": "COMMERSHIP GROUP", "codigo_act": "431110", "nombre_act": "Comercio al por mayor de abarrotes", "CVEGEO": "1900600010421", "CVE_ENT": "19", "CVE_MUN": "006", "CVE_LOC": "0001", "CVE_ASEN": "0421", "CP": "66603", "FECHA_ACT": "11/2024", "INSTITUCIO": "SECRETARÍA DE DESARROLLO URBANO, OBRAS PÚBLICAS, ECOLOGÍA Y TRANSPORTE DE APODACA", "NOM_ASEN": "PARQUE INDUSTRIAL REGIOMONTANO", "TIPO": "ZONA INDUSTRIAL", "Shape_Leng": 1936.54806332, "Shape_Area": 217302.9321 }, "geometry": { "type": "Point", "coordinates": [ -100.179127, 25.76424554 ] } },
{ "type": "Feature", "properties": { "nom_estab": "SUPER CARNES RC", "codigo_act": "461121", "nombre_act": "Comercio al por menor de carnes rojas", "CVEGEO": "1900600010172", "CVE_ENT": "19", "CVE_MUN": "006", "CVE_LOC": "0001", "CVE_ASEN": "0172", "CP": "66646", "FECHA_ACT": "11/2024", "INSTITUCIO": "SECRETARÍA DE DESARROLLO URBANO, OBRAS PÚBLICAS, ECOLOGÍA Y TRANSPORTE DE APODACA", "NOM_ASEN": "PUEBLO NUEVO SEGUNDO SECTOR", "TIPO": "COLONIA", "Shape_Leng": 1911.4663302199999, "Shape_Area": 199098.31680299999 }, "geometry": { "type": "Point", "coordinates": [ -100.15914192, 25.75907072 ] } },
{ "type": "Feature", "properties": { "nom_estab": "DISTRIBUIDORA GUNA MONTERREY", "codigo_act": "431110", "nombre_act": "Comercio al por mayor de abarrotes", "CVEGEO": "1900600010238", "CVE_ENT": "19", "CVE_MUN": "006", "CVE_LOC": "0001", "CVE_ASEN": "0238", "CP": "66637", "FECHA_ACT": "11/2024", "INSTITUCIO": "SECRETARÍA DE DESARROLLO URBANO, OBRAS PÚBLICAS, ECOLOGÍA Y TRANSPORTE DE APODACA", "NOM_ASEN": "PARQUE INDUSTRIAL MARTEL", "TIPO": "ZONA INDUSTRIAL", "Shape_Leng": 6651.8908830700002, "Shape_Area": 1265346.7303299999 }, "geometry": { "type": "Point", "coordinates": [ -100.18709604, 25.754275159999988 ] } },
{ "type": "Feature", "properties": { "nom_estab": "CARNES PRACTICAS", "codigo_act": "461121", "nombre_act": "Comercio al por menor de carnes rojas", "CVEGEO": "1900600010017", "CVE_ENT": "19", "CVE_MUN": "006", "CVE_LOC": "0001", "CVE_ASEN": "0017", "CP": "66600", "FECHA_ACT": "11/2024", "INSTITUCIO": "SECRETARÍA DE DESARROLLO URBANO, OBRAS PÚBLICAS, ECOLOGÍA Y TRANSPORTE DE APODACA", "NOM_ASEN": "CABECERA MUNICIPAL (APODACA)", "TIPO": "COLONIA", "Shape_Leng": 10463.263806000001, "Shape_Area": 1836887.27205 }, "geometry": { "type": "Point", "coordinates": [ -100.18933308, 25.780804669999977 ] } },
{ "type": "Feature", "properties": { "nom_estab": "CARNES MURILLO", "codigo_act": "461121", "nombre_act": "Comercio al por menor de carnes rojas", "CVEGEO": "1900600010017", "CVE_ENT": "19", "CVE_MUN": "006", "CVE_LOC": "0001", "CVE_ASEN": "0017", "CP": "66600", "FECHA_ACT": "11/2024", "INSTITUCIO": "SECRETARÍA DE DESARROLLO URBANO, OBRAS PÚBLICAS, ECOLOGÍA Y TRANSPORTE DE APODACA", "NOM_ASEN": "CABECERA MUNICIPAL (APODACA)", "TIPO": "COLONIA", "Shape_Leng": 10463.263806000001, "Shape_Area": 1836887.27205 }, "geometry": { "type": "Point", "coordinates": [ -100.18547954, 25.77717492 ] } },
{ "type": "Feature", "properties": { "nom_estab": "SUPER CARNES MARROQUIN", "codigo_act": "461121", "nombre_act": "Comercio al por menor de carnes rojas", "CVEGEO": "1900600010017", "CVE_ENT": "19", "CVE_MUN": "006", "CVE_LOC": "0001", "CVE_ASEN": "0017", "CP": "66600", "FECHA_ACT": "11/2024", "INSTITUCIO": "SECRETARÍA DE DESARROLLO URBANO, OBRAS PÚBLICAS, ECOLOGÍA Y TRANSPORTE DE APODACA", "NOM_ASEN": "CABECERA MUNICIPAL (APODACA)", "TIPO": "COLONIA", "Shape_Leng": 10463.263806000001, "Shape_Area": 1836887.27205 }, "geometry": { "type": "Point", "coordinates": [ -100.19102905, 25.78077303 ] } },
{ "type": "Feature", "properties": { "nom_estab": "SUPER CARNES MURILLO", "codigo_act": "461121", "nombre_act": "Comercio al por menor de carnes rojas", "CVEGEO": "1900600010174", "CVE_ENT": "19", "CVE_MUN": "006", "CVE_LOC": "0001", "CVE_ASEN": "0174", "CP": "66646", "FECHA_ACT": "11/2024", "INSTITUCIO": "SECRETARÍA DE DESARROLLO URBANO, OBRAS PÚBLICAS, ECOLOGÍA Y TRANSPORTE DE APODACA", "NOM_ASEN": "PUEBLO NUEVO CUARTO SECTOR", "TIPO": "COLONIA", "Shape_Leng": 3878.9388214000001, "Shape_Area": 384352.43033300003 }, "geometry": { "type": "Point", "coordinates": [ -100.17112924, 25.758872819999972 ] } },
{ "type": "Feature", "properties": { "nom_estab": "POLLO FRESCO", "codigo_act": "461122", "nombre_act": "Comercio al por menor de carne de aves", "CVEGEO": "1900600010288", "CVE_ENT": "19", "CVE_MUN": "006", "CVE_LOC": "0001", "CVE_ASEN": "0288", "CP": "66646", "FECHA_ACT": "11/2024", "INSTITUCIO": "SECRETARÍA DE DESARROLLO URBANO, OBRAS PÚBLICAS, ECOLOGÍA Y TRANSPORTE DE APODACA", "NOM_ASEN": "TRÉBOLES", "TIPO": "COLONIA", "Shape_Leng": 5089.2168142500004, "Shape_Area": 727381.484131 }, "geometry": { "type": "Point", "coordinates": [ -100.14264787, 25.764196310000042 ] } },
{ "type": "Feature", "properties": { "nom_estab": "POLLO FRESCO SIN NOMBRE", "codigo_act": "461122", "nombre_act": "Comercio al por menor de carne de aves", "CVEGEO": "1900600010131", "CVE_ENT": "19", "CVE_MUN": "006", "CVE_LOC": "0001", "CVE_ASEN": "0131", "CP": "66646", "FECHA_ACT": "11/2024", "INSTITUCIO": "SECRETARÍA DE DESARROLLO URBANO, OBRAS PÚBLICAS, ECOLOGÍA Y TRANSPORTE DE APODACA", "NOM_ASEN": "MISIÓN DE HUINALÁ PRIMER SECTOR", "TIPO": "COLONIA", "Shape_Leng": 2224.14206251, "Shape_Area": 172671.360579 }, "geometry": { "type": "Point", "coordinates": [ -100.16046001, 25.754413700000011 ] } },
{ "type": "Feature", "properties": { "nom_estab": "POLLO FRESCO SIN NOMBRE", "codigo_act": "461122", "nombre_act": "Comercio al por menor de carne de aves", "CVEGEO": "1900600010194", "CVE_ENT": "19", "CVE_MUN": "006", "CVE_LOC": "0001", "CVE_ASEN": "0194", "CP": "66646", "FECHA_ACT": "11/2024", "INSTITUCIO": "SECRETARÍA DE DESARROLLO URBANO, OBRAS PÚBLICAS, ECOLOGÍA Y TRANSPORTE DE APODACA", "NOM_ASEN": "SAN ISIDRO I", "TIPO": "COLONIA", "Shape_Leng": 1331.3291442300001, "Shape_Area": 112520.329902 }, "geometry": { "type": "Point", "coordinates": [ -100.15348673, 25.75950225 ] } },
{ "type": "Feature", "properties": { "nom_estab": "POLLO FRITO SIN NOMBRE", "codigo_act": "461122", "nombre_act": "Comercio al por menor de carne de aves", "CVEGEO": "1900600010136", "CVE_ENT": "19", "CVE_MUN": "006", "CVE_LOC": "0001", "CVE_ASEN": "0136", "CP": "66600", "FECHA_ACT": "11/2024", "INSTITUCIO": "SECRETARÍA DE DESARROLLO URBANO, OBRAS PÚBLICAS, ECOLOGÍA Y TRANSPORTE DE APODACA", "NOM_ASEN": "MODERNO APODACA SEGUNDO SECTOR", "TIPO": "COLONIA", "Shape_Leng": 993.47481594600004, "Shape_Area": 58902.742470199999 }, "geometry": { "type": "Point", "coordinates": [ -100.18129935, 25.781506430000011 ] } },
{ "type": "Feature", "properties": { "nom_estab": "DON CHULE", "codigo_act": "461121", "nombre_act": "Comercio al por menor de carnes rojas", "CVEGEO": "1900600010071", "CVE_ENT": "19", "CVE_MUN": "006", "CVE_LOC": "0001", "CVE_ASEN": "0071", "CP": "66640", "FECHA_ACT": "11/2024", "INSTITUCIO": "SECRETARÍA DE DESARROLLO URBANO, OBRAS PÚBLICAS, ECOLOGÍA Y TRANSPORTE DE APODACA", "NOM_ASEN": "HUINALÁ", "TIPO": "COLONIA", "Shape_Leng": 7098.8413938399999, "Shape_Area": 975235.65223200002 }, "geometry": { "type": "Point", "coordinates": [ -100.15898722, 25.74104082 ] } },
{ "type": "Feature", "properties": { "nom_estab": "POLLOS Q SABOR", "codigo_act": "461122", "nombre_act": "Comercio al por menor de carne de aves", "CVEGEO": "1900600010310", "CVE_ENT": "19", "CVE_MUN": "006", "CVE_LOC": "0001", "CVE_ASEN": "0310", "CP": "66634", "FECHA_ACT": "11/2024", "INSTITUCIO": "SECRETARÍA DE DESARROLLO URBANO, OBRAS PÚBLICAS, ECOLOGÍA Y TRANSPORTE DE APODACA", "NOM_ASEN": "ENCINOS RESIDENCIAL SEGUNDO SECTOR", "TIPO": "COLONIA", "Shape_Leng": 2547.82439445, "Shape_Area": 391999.12128000002 }, "geometry": { "type": "Point", "coordinates": [ -100.17690097, 25.7439392 ] } },
{ "type": "Feature", "properties": { "nom_estab": "CARNICERIA RC", "codigo_act": "461121", "nombre_act": "Comercio al por menor de carnes rojas", "CVEGEO": "1900600010131", "CVE_ENT": "19", "CVE_MUN": "006", "CVE_LOC": "0001", "CVE_ASEN": "0131", "CP": "66646", "FECHA_ACT": "11/2024", "INSTITUCIO": "SECRETARÍA DE DESARROLLO URBANO, OBRAS PÚBLICAS, ECOLOGÍA Y TRANSPORTE DE APODACA", "NOM_ASEN": "MISIÓN DE HUINALÁ PRIMER SECTOR", "TIPO": "COLONIA", "Shape_Leng": 2224.14206251, "Shape_Area": 172671.360579 }, "geometry": { "type": "Point", "coordinates": [ -100.15718523, 25.75287472000003 ] } },
{ "type": "Feature", "properties": { "nom_estab": "EL MAS POLLO SUCURSAL 03 05 APODACA", "codigo_act": "431122", "nombre_act": "Comercio al por mayor de carne de aves", "CVEGEO": "1900600010017", "CVE_ENT": "19", "CVE_MUN": "006", "CVE_LOC": "0001", "CVE_ASEN": "0017", "CP": "66600", "FECHA_ACT": "11/2024", "INSTITUCIO": "SECRETARÍA DE DESARROLLO URBANO, OBRAS PÚBLICAS, ECOLOGÍA Y TRANSPORTE DE APODACA", "NOM_ASEN": "CABECERA MUNICIPAL (APODACA)", "TIPO": "COLONIA", "Shape_Leng": 10463.263806000001, "Shape_Area": 1836887.27205 }, "geometry": { "type": "Point", "coordinates": [ -100.18940799, 25.78015257 ] } },
{ "type": "Feature", "properties": { "nom_estab": "CARNES Y ABARROTES LAS FLORES", "codigo_act": "461121", "nombre_act": "Comercio al por menor de carnes rojas", "CVEGEO": "1900600010443", "CVE_ENT": "19", "CVE_MUN": "006", "CVE_LOC": "0001", "CVE_ASEN": "0443", "CP": "66643", "FECHA_ACT": "11/2024", "INSTITUCIO": "SECRETARÍA DE DESARROLLO URBANO, OBRAS PÚBLICAS, ECOLOGÍA Y TRANSPORTE DE APODACA", "NOM_ASEN": "PASEO DE LAS FLORES TERCER SECTOR", "TIPO": "FRACCIONAMIENTO", "Shape_Leng": 2308.0234209099999, "Shape_Area": 202943.37431300001 }, "geometry": { "type": "Point", "coordinates": [ -100.13820526, 25.76185372 ] } },
{ "type": "Feature", "properties": { "nom_estab": "CARNICERIA", "codigo_act": "461121", "nombre_act": "Comercio al por menor de carnes rojas", "CVEGEO": "1900600010017", "CVE_ENT": "19", "CVE_MUN": "006", "CVE_LOC": "0001", "CVE_ASEN": "0017", "CP": "66600", "FECHA_ACT": "11/2024", "INSTITUCIO": "SECRETARÍA DE DESARROLLO URBANO, OBRAS PÚBLICAS, ECOLOGÍA Y TRANSPORTE DE APODACA", "NOM_ASEN": "CABECERA MUNICIPAL (APODACA)", "TIPO": "COLONIA", "Shape_Leng": 10463.263806000001, "Shape_Area": 1836887.27205 }, "geometry": { "type": "Point", "coordinates": [ -100.1864617, 25.78122455 ] } },
{ "type": "Feature", "properties": { "nom_estab": "CARNICERIA AGUIRRE", "codigo_act": "461121", "nombre_act": "Comercio al por menor de carnes rojas", "CVEGEO": "1900600010017", "CVE_ENT": "19", "CVE_MUN": "006", "CVE_LOC": "0001", "CVE_ASEN": "0017", "CP": "66600", "FECHA_ACT": "11/2024", "INSTITUCIO": "SECRETARÍA DE DESARROLLO URBANO, OBRAS PÚBLICAS, ECOLOGÍA Y TRANSPORTE DE APODACA", "NOM_ASEN": "CABECERA MUNICIPAL (APODACA)", "TIPO": "COLONIA", "Shape_Leng": 10463.263806000001, "Shape_Area": 1836887.27205 }, "geometry": { "type": "Point", "coordinates": [ -100.188436900000013, 25.784026450000034 ] } },
{ "type": "Feature", "properties": { "nom_estab": "SUPER CARNES CASTRO", "codigo_act": "461121", "nombre_act": "Comercio al por menor de carnes rojas", "CVEGEO": "1900600010288", "CVE_ENT": "19", "CVE_MUN": "006", "CVE_LOC": "0001", "CVE_ASEN": "0288", "CP": "66646", "FECHA_ACT": "11/2024", "INSTITUCIO": "SECRETARÍA DE DESARROLLO URBANO, OBRAS PÚBLICAS, ECOLOGÍA Y TRANSPORTE DE APODACA", "NOM_ASEN": "TRÉBOLES", "TIPO": "COLONIA", "Shape_Leng": 5089.2168142500004, "Shape_Area": 727381.484131 }, "geometry": { "type": "Point", "coordinates": [ -100.14300294, 25.763902679999983 ] } },
{ "type": "Feature", "properties": { "nom_estab": "SORIANA HIPER SENDERO LA FE SUCURSAL 0659", "codigo_act": "462111", "nombre_act": "Comercio al por menor en supermercados", "CVEGEO": "1900600010241", "CVE_ENT": "19", "CVE_MUN": "006", "CVE_LOC": "0001", "CVE_ASEN": "0241", "CP": "00000", "FECHA_ACT": "11/2024", "INSTITUCIO": "SECRETARÍA DE DESARROLLO URBANO, OBRAS PÚBLICAS, ECOLOGÍA Y TRANSPORTE DE APODACA", "NOM_ASEN": "NINGUNO", "TIPO": "NINGUNO", "Shape_Leng": 9310.7570935599997, "Shape_Area": 3306396.4154300001 }, "geometry": { "type": "Point", "coordinates": [ -100.19286903, 25.763554219999982 ] } },
{ "type": "Feature", "properties": { "nom_estab": "SORIANA SUPER LOS TREBOLES SUCURSAL 0638", "codigo_act": "462111", "nombre_act": "Comercio al por menor en supermercados", "CVEGEO": "1900600010479", "CVE_ENT": "19", "CVE_MUN": "006", "CVE_LOC": "0001", "CVE_ASEN": "0479", "CP": "66626", "FECHA_ACT": "11/2024", "INSTITUCIO": "SECRETARÍA DE DESARROLLO URBANO, OBRAS PÚBLICAS, ECOLOGÍA Y TRANSPORTE DE APODACA", "NOM_ASEN": "PARQUE INDUSTRIAL STIVA", "TIPO": "ZONA INDUSTRIAL", "Shape_Leng": 10942.2945578, "Shape_Area": 5326225.1582000004 }, "geometry": { "type": "Point", "coordinates": [ -100.148322140000019, 25.765404779999979 ] } },
{ "type": "Feature", "properties": { "nom_estab": "SORIANA HIPER HUINALA SUCURSAL 0111", "codigo_act": "462111", "nombre_act": "Comercio al por menor en supermercados", "CVEGEO": "1900600010310", "CVE_ENT": "19", "CVE_MUN": "006", "CVE_LOC": "0001", "CVE_ASEN": "0310", "CP": "66634", "FECHA_ACT": "11/2024", "INSTITUCIO": "SECRETARÍA DE DESARROLLO URBANO, OBRAS PÚBLICAS, ECOLOGÍA Y TRANSPORTE DE APODACA", "NOM_ASEN": "ENCINOS RESIDENCIAL SEGUNDO SECTOR", "TIPO": "COLONIA", "Shape_Leng": 2547.82439445, "Shape_Area": 391999.12128000002 }, "geometry": { "type": "Point", "coordinates": [ -100.17650491, 25.74469926 ] } },
{ "type": "Feature", "properties": { "nom_estab": "ABARROTES Y CARNICERIA LOS CUATES", "codigo_act": "461121", "nombre_act": "Comercio al por menor de carnes rojas", "CVEGEO": "1900600010080", "CVE_ENT": "19", "CVE_MUN": "006", "CVE_LOC": "0001", "CVE_ASEN": "0080", "CP": "66640", "FECHA_ACT": "11/2024", "INSTITUCIO": "SECRETARÍA DE DESARROLLO URBANO, OBRAS PÚBLICAS, ECOLOGÍA Y TRANSPORTE DE APODACA", "NOM_ASEN": "JARDINES DE HUINALÁ E-1", "TIPO": "COLONIA", "Shape_Leng": 2106.6388902399999, "Shape_Area": 161962.689155 }, "geometry": { "type": "Point", "coordinates": [ -100.17016082, 25.74283968 ] } },
{ "type": "Feature", "properties": { "nom_estab": "AVICOLA", "codigo_act": "461122", "nombre_act": "Comercio al por menor de carne de aves", "CVEGEO": "1900603890002", "CVE_ENT": "19", "CVE_MUN": "006", "CVE_LOC": "0389", "CVE_ASEN": "0002", "CP": "66646", "FECHA_ACT": "11/2024", "INSTITUCIO": "SECRETARÍA DE DESARROLLO URBANO, OBRAS PÚBLICAS, ECOLOGÍA Y TRANSPORTE DE APODACA", "NOM_ASEN": "MISIÓN DE SAN JAVIER", "TIPO": "FRACCIONAMIENTO", "Shape_Leng": 1733.53712795, "Shape_Area": 145518.68638599999 }, "geometry": { "type": "Point", "coordinates": [ -100.15209026, 25.745273239999964 ] } },
{ "type": "Feature", "properties": { "nom_estab": "OPERADORA MERCO SUCURSAL 579 PUEBLO NUEVO", "codigo_act": "462111", "nombre_act": "Comercio al por menor en supermercados", "CVEGEO": "1900600010412", "CVE_ENT": "19", "CVE_MUN": "006", "CVE_LOC": "0001", "CVE_ASEN": "0412", "CP": "66645", "FECHA_ACT": "11/2024", "INSTITUCIO": "SECRETARÍA DE DESARROLLO URBANO, OBRAS PÚBLICAS, ECOLOGÍA Y TRANSPORTE DE APODACA", "NOM_ASEN": "PARQUE INDUSTRIAL EL SABINAL", "TIPO": "ZONA INDUSTRIAL", "Shape_Leng": 4442.3587141099997, "Shape_Area": 1094081.1213100001 }, "geometry": { "type": "Point", "coordinates": [ -100.17029909, 25.75463351 ] } },
{ "type": "Feature", "properties": { "nom_estab": "PIMPOLLO", "codigo_act": "461122", "nombre_act": "Comercio al por menor de carne de aves", "CVEGEO": "1900600010057", "CVE_ENT": "19", "CVE_MUN": "006", "CVE_LOC": "0001", "CVE_ASEN": "0057", "CP": "66600", "FECHA_ACT": "11/2024", "INSTITUCIO": "SECRETARÍA DE DESARROLLO URBANO, OBRAS PÚBLICAS, ECOLOGÍA Y TRANSPORTE DE APODACA", "NOM_ASEN": "FUTURO APODACA", "TIPO": "COLONIA", "Shape_Leng": 786.03416387499999, "Shape_Area": 38603.597633799996 }, "geometry": { "type": "Point", "coordinates": [ -100.1808787, 25.780965159999987 ] } },
{ "type": "Feature", "properties": { "nom_estab": "AVICOLA EL BUEN POLLO", "codigo_act": "461122", "nombre_act": "Comercio al por menor de carne de aves", "CVEGEO": "1900600010017", "CVE_ENT": "19", "CVE_MUN": "006", "CVE_LOC": "0001", "CVE_ASEN": "0017", "CP": "66600", "FECHA_ACT": "11/2024", "INSTITUCIO": "SECRETARÍA DE DESARROLLO URBANO, OBRAS PÚBLICAS, ECOLOGÍA Y TRANSPORTE DE APODACA", "NOM_ASEN": "CABECERA MUNICIPAL (APODACA)", "TIPO": "COLONIA", "Shape_Leng": 10463.263806000001, "Shape_Area": 1836887.27205 }, "geometry": { "type": "Point", "coordinates": [ -100.19439806, 25.78231805 ] } },
{ "type": "Feature", "properties": { "nom_estab": "CARNICERIA Y SUPER SAN JOSE", "codigo_act": "461121", "nombre_act": "Comercio al por menor de carnes rojas", "CVEGEO": "1900600010288", "CVE_ENT": "19", "CVE_MUN": "006", "CVE_LOC": "0001", "CVE_ASEN": "0288", "CP": "66646", "FECHA_ACT": "11/2024", "INSTITUCIO": "SECRETARÍA DE DESARROLLO URBANO, OBRAS PÚBLICAS, ECOLOGÍA Y TRANSPORTE DE APODACA", "NOM_ASEN": "TRÉBOLES", "TIPO": "COLONIA", "Shape_Leng": 5089.2168142500004, "Shape_Area": 727381.484131 }, "geometry": { "type": "Point", "coordinates": [ -100.139844190000019, 25.76382614 ] } },
{ "type": "Feature", "properties": { "nom_estab": "LA ESPERANZA DISTRIBUIDORA", "codigo_act": "431110", "nombre_act": "Comercio al por mayor de abarrotes", "CVEGEO": "1900600010017", "CVE_ENT": "19", "CVE_MUN": "006", "CVE_LOC": "0001", "CVE_ASEN": "0017", "CP": "66600", "FECHA_ACT": "11/2024", "INSTITUCIO": "SECRETARÍA DE DESARROLLO URBANO, OBRAS PÚBLICAS, ECOLOGÍA Y TRANSPORTE DE APODACA", "NOM_ASEN": "CABECERA MUNICIPAL (APODACA)", "TIPO": "COLONIA", "Shape_Leng": 10463.263806000001, "Shape_Area": 1836887.27205 }, "geometry": { "type": "Point", "coordinates": [ -100.19264247, 25.780169969999985 ] } },
{ "type": "Feature", "properties": { "nom_estab": "MAS ABASTO APODACA", "codigo_act": "431110", "nombre_act": "Comercio al por mayor de abarrotes", "CVEGEO": "1900600010017", "CVE_ENT": "19", "CVE_MUN": "006", "CVE_LOC": "0001", "CVE_ASEN": "0017", "CP": "66600", "FECHA_ACT": "11/2024", "INSTITUCIO": "SECRETARÍA DE DESARROLLO URBANO, OBRAS PÚBLICAS, ECOLOGÍA Y TRANSPORTE DE APODACA", "NOM_ASEN": "CABECERA MUNICIPAL (APODACA)", "TIPO": "COLONIA", "Shape_Leng": 10463.263806000001, "Shape_Area": 1836887.27205 }, "geometry": { "type": "Point", "coordinates": [ -100.1908394, 25.780626540000029 ] } },
{ "type": "Feature", "properties": { "nom_estab": "SAMS CAMINO HUINALA G 6320", "codigo_act": "462111", "nombre_act": "Comercio al por menor en supermercados", "CVEGEO": "1900600010361", "CVE_ENT": "19", "CVE_MUN": "006", "CVE_LOC": "0001", "CVE_ASEN": "0361", "CP": "66634", "FECHA_ACT": "11/2024", "INSTITUCIO": "SECRETARÍA DE DESARROLLO URBANO, OBRAS PÚBLICAS, ECOLOGÍA Y TRANSPORTE DE APODACA", "NOM_ASEN": "PRIVADA ILTAMARINDO", "TIPO": "FRACCIONAMIENTO", "Shape_Leng": 1522.3656180099999, "Shape_Area": 105236.94970700001 }, "geometry": { "type": "Point", "coordinates": [ -100.18233498, 25.74516697 ] } },
{ "type": "Feature", "properties": { "nom_estab": "PRODUCTOS Y ALIMENTOS DE LA FUENTE", "codigo_act": "311612", "nombre_act": "Corte y empacado de carne de ganado, aves y otros animales comestibles", "CVEGEO": "1900600010017", "CVE_ENT": "19", "CVE_MUN": "006", "CVE_LOC": "0001", "CVE_ASEN": "0017", "CP": "66600", "FECHA_ACT": "11/2024", "INSTITUCIO": "SECRETARÍA DE DESARROLLO URBANO, OBRAS PÚBLICAS, ECOLOGÍA Y TRANSPORTE DE APODACA", "NOM_ASEN": "CABECERA MUNICIPAL (APODACA)", "TIPO": "COLONIA", "Shape_Leng": 10463.263806000001, "Shape_Area": 1836887.27205 }, "geometry": { "type": "Point", "coordinates": [ -100.19400567, 25.782084670000028 ] } },
{ "type": "Feature", "properties": { "nom_estab": "QUE POLLO PUEBLO NUEVO", "codigo_act": "461122", "nombre_act": "Comercio al por menor de carne de aves", "CVEGEO": "1900600010173", "CVE_ENT": "19", "CVE_MUN": "006", "CVE_LOC": "0001", "CVE_ASEN": "0173", "CP": "66646", "FECHA_ACT": "11/2024", "INSTITUCIO": "SECRETARÍA DE DESARROLLO URBANO, OBRAS PÚBLICAS, ECOLOGÍA Y TRANSPORTE DE APODACA", "NOM_ASEN": "PUEBLO NUEVO TERCER SECTOR", "TIPO": "COLONIA", "Shape_Leng": 2765.7195235700001, "Shape_Area": 317270.33355500002 }, "geometry": { "type": "Point", "coordinates": [ -100.16317735, 25.76040101 ] } },
{ "type": "Feature", "properties": { "nom_estab": "TSK APODACA CENTRO", "codigo_act": "461121", "nombre_act": "Comercio al por menor de carnes rojas", "CVEGEO": "1900600010017", "CVE_ENT": "19", "CVE_MUN": "006", "CVE_LOC": "0001", "CVE_ASEN": "0017", "CP": "66600", "FECHA_ACT": "11/2024", "INSTITUCIO": "SECRETARÍA DE DESARROLLO URBANO, OBRAS PÚBLICAS, ECOLOGÍA Y TRANSPORTE DE APODACA", "NOM_ASEN": "CABECERA MUNICIPAL (APODACA)", "TIPO": "COLONIA", "Shape_Leng": 10463.263806000001, "Shape_Area": 1836887.27205 }, "geometry": { "type": "Point", "coordinates": [ -100.18911106, 25.78201949000001 ] } },
{ "type": "Feature", "properties": { "nom_estab": "AVICOLA OCHOA", "codigo_act": "461122", "nombre_act": "Comercio al por menor de carne de aves", "CVEGEO": "1900600010175", "CVE_ENT": "19", "CVE_MUN": "006", "CVE_LOC": "0001", "CVE_ASEN": "0175", "CP": "66646", "FECHA_ACT": "11/2024", "INSTITUCIO": "SECRETARÍA DE DESARROLLO URBANO, OBRAS PÚBLICAS, ECOLOGÍA Y TRANSPORTE DE APODACA", "NOM_ASEN": "PUEBLO NUEVO QUINTO SECTOR", "TIPO": "COLONIA", "Shape_Leng": 3083.1966139199999, "Shape_Area": 559003.02493399999 }, "geometry": { "type": "Point", "coordinates": [ -100.16660546, 25.75825929 ] } },
{ "type": "Feature", "properties": { "nom_estab": "BAE PRIVADA DOMINIO G 2835", "codigo_act": "462111", "nombre_act": "Comercio al por menor en supermercados", "CVEGEO": "1900603890003", "CVE_ENT": "19", "CVE_MUN": "006", "CVE_LOC": "0389", "CVE_ASEN": "0003", "CP": "66646", "FECHA_ACT": "11/2024", "INSTITUCIO": "SECRETARÍA DE DESARROLLO URBANO, OBRAS PÚBLICAS, ECOLOGÍA Y TRANSPORTE DE APODACA", "NOM_ASEN": "PRIVADA DOMINIO", "TIPO": "FRACCIONAMIENTO", "Shape_Leng": 1468.8160857600001, "Shape_Area": 107713.54102400001 }, "geometry": { "type": "Point", "coordinates": [ -100.1545889, 25.744077929999989 ] } },
{ "type": "Feature", "properties": { "nom_estab": "BALDERAS SUPER CARNES", "codigo_act": "461121", "nombre_act": "Comercio al por menor de carnes rojas", "CVEGEO": "1900600010017", "CVE_ENT": "19", "CVE_MUN": "006", "CVE_LOC": "0001", "CVE_ASEN": "0017", "CP": "66600", "FECHA_ACT": "11/2024", "INSTITUCIO": "SECRETARÍA DE DESARROLLO URBANO, OBRAS PÚBLICAS, ECOLOGÍA Y TRANSPORTE DE APODACA", "NOM_ASEN": "CABECERA MUNICIPAL (APODACA)", "TIPO": "COLONIA", "Shape_Leng": 10463.263806000001, "Shape_Area": 1836887.27205 }, "geometry": { "type": "Point", "coordinates": [ -100.18797154, 25.7773701 ] } },
{ "type": "Feature", "properties": { "nom_estab": "LPG CARNES", "codigo_act": "461121", "nombre_act": "Comercio al por menor de carnes rojas", "CVEGEO": "1900600010017", "CVE_ENT": "19", "CVE_MUN": "006", "CVE_LOC": "0001", "CVE_ASEN": "0017", "CP": "66600", "FECHA_ACT": "11/2024", "INSTITUCIO": "SECRETARÍA DE DESARROLLO URBANO, OBRAS PÚBLICAS, ECOLOGÍA Y TRANSPORTE DE APODACA", "NOM_ASEN": "CABECERA MUNICIPAL (APODACA)", "TIPO": "COLONIA", "Shape_Leng": 10463.263806000001, "Shape_Area": 1836887.27205 }, "geometry": { "type": "Point", "coordinates": [ -100.18672221, 25.78289031 ] } },
{ "type": "Feature", "properties": { "nom_estab": "CARNICERIA Y CHICHARRONERIA MENDEZ JR", "codigo_act": "461121", "nombre_act": "Comercio al por menor de carnes rojas", "CVEGEO": "1900600010174", "CVE_ENT": "19", "CVE_MUN": "006", "CVE_LOC": "0001", "CVE_ASEN": "0174", "CP": "66646", "FECHA_ACT": "11/2024", "INSTITUCIO": "SECRETARÍA DE DESARROLLO URBANO, OBRAS PÚBLICAS, ECOLOGÍA Y TRANSPORTE DE APODACA", "NOM_ASEN": "PUEBLO NUEVO CUARTO SECTOR", "TIPO": "COLONIA", "Shape_Leng": 3878.9388214000001, "Shape_Area": 384352.43033300003 }, "geometry": { "type": "Point", "coordinates": [ -100.17193357, 25.75871289 ] } }
]
}
