{
"type": "FeatureCollection",
"name": "05_POI_Plazas_PuebloNuevo",
"crs": { "type": "name", "properties": { "name": "urn:ogc:def:crs:OGC:1.3:CRS84" } },
"features": [
{ "type": "Feature", "properties": { "id": "here:pds:place:484jx7ps-5d10ae14c4e70eb9539053c5c0c2361e", "origin_id": 3044910, "title": "Plaza Platino Plus", "label": "Plaza Platino Plus, Calle Oaxaca, Apodaca Centro, 66600 Apodaca, NL, México", "distance": 710.0, "categories": "600-6100-0062", "CVEGEO": "1900600010017", "CVE_ENT": "19", "CVE_MUN": "006", "CVE_LOC": "0001", "CVE_ASEN": "0017", "CP": "66600", "FECHA_ACT": "11/2024", "INSTITUCIO": "SECRETARÍA DE DESARROLLO URBANO, OBRAS PÚBLICAS, ECOLOGÍA Y TRANSPORTE DE APODACA", "NOM_ASEN": "CABECERA MUNICIPAL (APODACA)", "TIPO": "COLONIA", "Shape_Leng": 10463.263806000001, "Shape_Area": 1836887.27205 }, "geometry": { "type": "Point", "coordinates": [ -100.19011, 25.78517 ] } },
{ "type": "Feature", "properties": { "id": "here:pds:place:4849u8f8-b19dc1e0173e0c064ab241e5152af7bc", "origin_id": 3044910, "title": "Plaza Sendero Puerta 1", "label": "Plaza Sendero Puerta 1, av. Miguel Alemán 789, Pueblo Huinalá, 66640 Apodaca, NL, México", "distance": 1647.0, "categories": "600-6100-0062", "CVEGEO": "1900600010241", "CVE_ENT": "19", "CVE_MUN": "006", "CVE_LOC": "0001", "CVE_ASEN": "0241", "CP": "00000", "FECHA_ACT": "11/2024", "INSTITUCIO": "SECRETARÍA DE DESARROLLO URBANO, OBRAS PÚBLICAS, ECOLOGÍA Y TRANSPORTE DE APODACA", "NOM_ASEN": "NINGUNO", "TIPO": "NINGUNO", "Shape_Leng": 9310.7570935599997, "Shape_Area": 3306396.4154300001 }, "geometry": { "type": "Point", "coordinates": [ -100.19074, 25.76462 ] } },
{ "type": "Feature", "properties": { "id": "here:pds:place:4849u8f8-7fc2716cd03541e5afc43e9f418cd7e6", "origin_id": 3044910, "title": "Plaza Sendero Puerta 2", "label": "Plaza Sendero Puerta 2, Avenida Miguel Alemán 789, Parque Industrial Kalos, 66600 Apodaca, NL, México", "distance": 1778.0, "categories": "600-6100-0062", "CVEGEO": "1900600010241", "CVE_ENT": "19", "CVE_MUN": "006", "CVE_LOC": "0001", "CVE_ASEN": "0241", "CP": "00000", "FECHA_ACT": "11/2024", "INSTITUCIO": "SECRETARÍA DE DESARROLLO URBANO, OBRAS PÚBLICAS, ECOLOGÍA Y TRANSPORTE DE APODACA", "NOM_ASEN": "NINGUNO", "TIPO": "NINGUNO", "Shape_Leng": 9310.7570935599997, "Shape_Area": 3306396.4154300001 }, "geometry": { "type": "Point", "coordinates": [ -100.19125, 25.76351 ] } },
{ "type": "Feature", "properties": { "id": "here:pds:place:484jx7ps-dc0d446555c90ff9fc0d714f1ae504e6", "origin_id": 3044910, "title": "Plaza Sendero La Fe", "label": "Plaza Sendero La Fe, Avenida Miguel Alemán 789, Parque Industrial Kalos, 66600 Apodaca, NL, México", "distance": 1792.0, "categories": "600-6100-0062", "CVEGEO": "1900600010241", "CVE_ENT": "19", "CVE_MUN": "006", "CVE_LOC": "0001", "CVE_ASEN": "0241", "CP": "00000", "FECHA_ACT": "11/2024", "INSTITUCIO": "SECRETARÍA DE DESARROLLO URBANO, OBRAS PÚBLICAS, ECOLOGÍA Y TRANSPORTE DE APODACA", "NOM_ASEN": "NINGUNO", "TIPO": "NINGUNO", "Shape_Leng": 9310.7570935599997, "Shape_Area": 3306396.4154300001 }, "geometry": { "type": "Point", "coordinates": [ -100.19273, 25.76371 ] } }
]
}
