{
"type": "FeatureCollection",
"name": "06_POI_Escuelas_PuebloNuevo",
"crs": { "type": "name", "properties": { "name": "urn:ogc:def:crs:OGC:1.3:CRS84" } },
"features": [
{ "type": "Feature", "properties": { "id": "here:pds:place:4849u8f9-e80399b0d8ef54d863d9181f43d5a6a5", "origin_id": 11230950, "title": "Secundaria Tecnica Num 107 Carlos Canseco González", "label": "Secundaria Tecnica Num 107 Carlos Canseco González, Avenida del Prado, Fraccionamiento Los Treboles, 66646 Apodaca, NL, México", "distance": 3429.0, "categories": "800-8250-0000;800-8250-0287;800-8250-0288", "CVEGEO": "1900600010288", "CVE_ENT": "19", "CVE_MUN": "006", "CVE_LOC": "0001", "CVE_ASEN": "0288", "CP": "66646", "FECHA_ACT": "11/2024", "INSTITUCIO": "SECRETARÍA DE DESARROLLO URBANO, OBRAS PÚBLICAS, ECOLOGÍA Y TRANSPORTE DE APODACA", "NOM_ASEN": "TRÉBOLES", "TIPO": "COLONIA", "Shape_Leng": 5089.2168142500004, "Shape_Area": 727381.484131 }, "geometry": { "type": "Point", "coordinates": [ -100.1413, 25.76417 ] } },
{ "type": "Feature", "properties": { "id": "here:pds:place:4849u8f9-88f611ca394c4855ac9f30d06f5ede45", "origin_id": 11230950, "title": "Antonio Vivaldi", "label": "Antonio Vivaldi, Calle Olivo, Fraccionamiento Los Treboles, 66646 Apodaca, NL, México", "distance": 3769.0, "categories": "700-7400-0286;800-8250-0000", "CVEGEO": "1900600010288", "CVE_ENT": "19", "CVE_MUN": "006", "CVE_LOC": "0001", "CVE_ASEN": "0288", "CP": "66646", "FECHA_ACT": "11/2024", "INSTITUCIO": "SECRETARÍA DE DESARROLLO URBANO, OBRAS PÚBLICAS, ECOLOGÍA Y TRANSPORTE DE APODACA", "NOM_ASEN": "TRÉBOLES", "TIPO": "COLONIA", "Shape_Leng": 5089.2168142500004, "Shape_Area": 727381.484131 }, "geometry": { "type": "Point", "coordinates": [ -100.14512, 25.76384 ] } },
{ "type": "Feature", "properties": { "id": "here:pds:place:4849u8f9-7d69ef9c5b45f7dcf27cd2a8e35f3dd0", "origin_id": 11230950, "title": "Profr Servando Miguel Molina de León", "label": "Profr Servando Miguel Molina de León, Calle Nogal, Fraccionamiento Los Treboles, 66646 Apodaca, NL, México", "distance": 3847.0, "categories": "800-8250-0287;800-8250-0000", "CVEGEO": "1900600010288", "CVE_ENT": "19", "CVE_MUN": "006", "CVE_LOC": "0001", "CVE_ASEN": "0288", "CP": "66646", "FECHA_ACT": "11/2024", "INSTITUCIO": "SECRETARÍA DE DESARROLLO URBANO, OBRAS PÚBLICAS, ECOLOGÍA Y TRANSPORTE DE APODACA", "NOM_ASEN": "TRÉBOLES", "TIPO": "COLONIA", "Shape_Leng": 5089.2168142500004, "Shape_Area": 727381.484131 }, "geometry": { "type": "Point", "coordinates": [ -100.14598, 25.76376 ] } },
{ "type": "Feature", "properties": { "id": "here:pds:place:484d408k-05117feb0fba08d4eba02f6790ece1ee", "origin_id": 11230950, "title": "Lear Corporation", "label": "Lear Corporation, Calle 7ma, Apodaca Industrial Park, 66626 Apodaca, NL, México", "distance": 3859.0, "categories": "700-7200-0000;700-7400-0141;800-8250-0000", "CVEGEO": "1900600010479", "CVE_ENT": "19", "CVE_MUN": "006", "CVE_LOC": "0001", "CVE_ASEN": "0479", "CP": "66626", "FECHA_ACT": "11/2024", "INSTITUCIO": "SECRETARÍA DE DESARROLLO URBANO, OBRAS PÚBLICAS, ECOLOGÍA Y TRANSPORTE DE APODACA", "NOM_ASEN": "PARQUE INDUSTRIAL STIVA", "TIPO": "ZONA INDUSTRIAL", "Shape_Leng": 10942.2945578, "Shape_Area": 5326225.1582000004 }, "geometry": { "type": "Point", "coordinates": [ -100.14342, 25.769 ] } },
{ "type": "Feature", "properties": { "id": "here:pds:place:4849u8f3-d166ee022527890e1f2bc4e54b0c60b6", "origin_id": 11230950, "title": "Gaspar Castaño de Sosa", "label": "Gaspar Castaño de Sosa, Calle Ibis, Misión de San Javier, 66646 Apodaca, NL, México", "distance": 4034.0, "categories": "800-8250-0000;700-7400-0286", "CVEGEO": "1900603890001", "CVE_ENT": "19", "CVE_MUN": "006", "CVE_LOC": "0389", "CVE_ASEN": "0001", "CP": "66646", "FECHA_ACT": "11/2024", "INSTITUCIO": "SECRETARÍA DE DESARROLLO URBANO, OBRAS PÚBLICAS, ECOLOGÍA Y TRANSPORTE DE APODACA", "NOM_ASEN": "LOS COLIBRÍES", "TIPO": "COLONIA", "Shape_Leng": 1845.3156261199999, "Shape_Area": 170244.70222000001 }, "geometry": { "type": "Point", "coordinates": [ -100.14985, 25.74715 ] } },
{ "type": "Feature", "properties": { "id": "here:pds:place:4849u8f3-da70d6577ad5e545d0e2c662262db4d0", "origin_id": 11230950, "title": "Profra Irene Quintana Álvarez", "label": "Profra Irene Quintana Álvarez, Avenida San Javier, Misión de San Javier, 66646 Apodaca, NL, México", "distance": 4133.0, "categories": "800-8250-0287;800-8250-0000", "CVEGEO": "1900603890002", "CVE_ENT": "19", "CVE_MUN": "006", "CVE_LOC": "0389", "CVE_ASEN": "0002", "CP": "66646", "FECHA_ACT": "11/2024", "INSTITUCIO": "SECRETARÍA DE DESARROLLO URBANO, OBRAS PÚBLICAS, ECOLOGÍA Y TRANSPORTE DE APODACA", "NOM_ASEN": "MISIÓN DE SAN JAVIER", "TIPO": "FRACCIONAMIENTO", "Shape_Leng": 1733.53712795, "Shape_Area": 145518.68638599999 }, "geometry": { "type": "Point", "coordinates": [ -100.15078, 25.74675 ] } },
{ "type": "Feature", "properties": { "id": "here:pds:place:4849u8f9-ebfbf886ed7b45a090159fefaec562fe", "origin_id": 11230950, "title": "Maria José Izquierdo", "label": "Maria José Izquierdo, Calle Río Mississippi Sur, Residencial Milenium, 66646 Apodaca, NL, México", "distance": 4149.0, "categories": "700-7400-0286;800-8200-0000;800-8250-0000", "CVEGEO": "1900600010125", "CVE_ENT": "19", "CVE_MUN": "006", "CVE_LOC": "0001", "CVE_ASEN": "0125", "CP": "66646", "FECHA_ACT": "11/2024", "INSTITUCIO": "SECRETARÍA DE DESARROLLO URBANO, OBRAS PÚBLICAS, ECOLOGÍA Y TRANSPORTE DE APODACA", "NOM_ASEN": "MILENIUM RESIDENCIAL", "TIPO": "COLONIA", "Shape_Leng": 2200.04898164, "Shape_Area": 184721.98815300001 }, "geometry": { "type": "Point", "coordinates": [ -100.15028, 25.76023 ] } },
{ "type": "Feature", "properties": { "id": "here:pds:place:4849u8f8-c52f45666e6cdd2d5610ec4ea2b5c6de", "origin_id": 11230950, "title": "Profr Abiel Mascareñas Valadez", "label": "Profr Abiel Mascareñas Valadez, Calle Río Mississippi Sur, Residencial Milenium, 66646 Apodaca, NL, México", "distance": 4235.0, "categories": "800-8250-0000;800-8250-0287", "CVEGEO": "1900600010194", "CVE_ENT": "19", "CVE_MUN": "006", "CVE_LOC": "0001", "CVE_ASEN": "0194", "CP": "66646", "FECHA_ACT": "11/2024", "INSTITUCIO": "SECRETARÍA DE DESARROLLO URBANO, OBRAS PÚBLICAS, ECOLOGÍA Y TRANSPORTE DE APODACA", "NOM_ASEN": "SAN ISIDRO I", "TIPO": "COLONIA", "Shape_Leng": 1331.3291442300001, "Shape_Area": 112520.329902 }, "geometry": { "type": "Point", "coordinates": [ -100.15143, 25.75908 ] } },
{ "type": "Feature", "properties": { "id": "here:pds:place:484jx7ps-4eac4267bd8d0052c13fbc5bc1f83de4", "origin_id": 11230950, "title": "José Guadalupe Posada", "label": "José Guadalupe Posada, Camino de Portales, Portal de Huinalá, 66646 Apodaca, NL, México", "distance": 4591.0, "categories": "800-8250-0000;700-7400-0286", "CVEGEO": "1900600010164", "CVE_ENT": "19", "CVE_MUN": "006", "CVE_LOC": "0001", "CVE_ASEN": "0164", "CP": "66646", "FECHA_ACT": "11/2024", "INSTITUCIO": "SECRETARÍA DE DESARROLLO URBANO, OBRAS PÚBLICAS, ECOLOGÍA Y TRANSPORTE DE APODACA", "NOM_ASEN": "PORTAL DE HUINALÁ", "TIPO": "COLONIA", "Shape_Leng": 1920.8607418199999, "Shape_Area": 200694.46565599999 }, "geometry": { "type": "Point", "coordinates": [ -100.15565, 25.75464 ] } },
{ "type": "Feature", "properties": { "id": "here:pds:place:4849u8f8-f9aba970e38758319600841e5ac36c5e", "origin_id": 11230950, "title": "Bernardo Ortiz de Montellano Andanac 16", "label": "Bernardo Ortiz de Montellano Andanac 16, Camino de Portales, Portal de Huinalá, 66646 Apodaca, NL, México", "distance": 4626.0, "categories": "800-8250-0000;800-8250-0287", "CVEGEO": "1900600010164", "CVE_ENT": "19", "CVE_MUN": "006", "CVE_LOC": "0001", "CVE_ASEN": "0164", "CP": "66646", "FECHA_ACT": "11/2024", "INSTITUCIO": "SECRETARÍA DE DESARROLLO URBANO, OBRAS PÚBLICAS, ECOLOGÍA Y TRANSPORTE DE APODACA", "NOM_ASEN": "PORTAL DE HUINALÁ", "TIPO": "COLONIA", "Shape_Leng": 1920.8607418199999, "Shape_Area": 200694.46565599999 }, "geometry": { "type": "Point", "coordinates": [ -100.15602, 25.75437 ] } },
{ "type": "Feature", "properties": { "id": "here:pds:place:484jx7ps-32fc8ed1aed8097505a3241ec4606218", "origin_id": 11230950, "title": "Prim. Bernardo Ortiz de Montellano", "label": "Prim. Bernardo Ortiz de Montellano, Calle Portal de Huinalá, Portal de Huinalá, 66646 Apodaca, NL, México", "distance": 4638.0, "categories": "800-8250-0000;800-8250-0287", "CVEGEO": "1900600010164", "CVE_ENT": "19", "CVE_MUN": "006", "CVE_LOC": "0001", "CVE_ASEN": "0164", "CP": "66646", "FECHA_ACT": "11/2024", "INSTITUCIO": "SECRETARÍA DE DESARROLLO URBANO, OBRAS PÚBLICAS, ECOLOGÍA Y TRANSPORTE DE APODACA", "NOM_ASEN": "PORTAL DE HUINALÁ", "TIPO": "COLONIA", "Shape_Leng": 1920.8607418199999, "Shape_Area": 200694.46565599999 }, "geometry": { "type": "Point", "coordinates": [ -100.15608, 25.75506 ] } },
{ "type": "Feature", "properties": { "id": "here:pds:place:484jx7ps-b138a18b87800cc47256872e20e3763e", "origin_id": 11230950, "title": "Escuela Secundaria 5 Agustín Basave", "label": "Escuela Secundaria 5 Agustín Basave, Calle Portal de Huinalá, Portal de Huinalá, 66646 Apodaca, NL, México", "distance": 4648.0, "categories": "800-8250-0000;800-8250-0288", "CVEGEO": "1900600010164", "CVE_ENT": "19", "CVE_MUN": "006", "CVE_LOC": "0001", "CVE_ASEN": "0164", "CP": "66646", "FECHA_ACT": "11/2024", "INSTITUCIO": "SECRETARÍA DE DESARROLLO URBANO, OBRAS PÚBLICAS, ECOLOGÍA Y TRANSPORTE DE APODACA", "NOM_ASEN": "PORTAL DE HUINALÁ", "TIPO": "COLONIA", "Shape_Leng": 1920.8607418199999, "Shape_Area": 200694.46565599999 }, "geometry": { "type": "Point", "coordinates": [ -100.15619, 25.75504 ] } },
{ "type": "Feature", "properties": { "id": "here:pds:place:4849u8f8-ceb4bc4210b2b9f3898a896265dcbf43", "origin_id": 11230950, "title": "Escuela José Guadalupe Posada", "label": "Escuela José Guadalupe Posada, Calle Portal de Huinalá, Portal de Huinalá, 66646 Apodaca, NL, México", "distance": 4724.0, "categories": "800-8250-0000", "CVEGEO": "1900600010164", "CVE_ENT": "19", "CVE_MUN": "006", "CVE_LOC": "0001", "CVE_ASEN": "0164", "CP": "66646", "FECHA_ACT": "11/2024", "INSTITUCIO": "SECRETARÍA DE DESARROLLO URBANO, OBRAS PÚBLICAS, ECOLOGÍA Y TRANSPORTE DE APODACA", "NOM_ASEN": "PORTAL DE HUINALÁ", "TIPO": "COLONIA", "Shape_Leng": 1920.8607418199999, "Shape_Area": 200694.46565599999 }, "geometry": { "type": "Point", "coordinates": [ -100.15697, 25.7548 ] } },
{ "type": "Feature", "properties": { "id": "here:pds:place:484jx7ps-91b6da71ff7803f25e74ce0c54a63194", "origin_id": 11230950, "title": "Ninfa Esther Fuentes de García", "label": "Ninfa Esther Fuentes de García, Privada Río Orinoco 308, Pueblo Nuevo 5to Sector, 66646 Apodaca, NL, México", "distance": 5026.0, "categories": "800-8250-0000;800-8250-0287", "CVEGEO": "1900600010175", "CVE_ENT": "19", "CVE_MUN": "006", "CVE_LOC": "0001", "CVE_ASEN": "0175", "CP": "66646", "FECHA_ACT": "11/2024", "INSTITUCIO": "SECRETARÍA DE DESARROLLO URBANO, OBRAS PÚBLICAS, ECOLOGÍA Y TRANSPORTE DE APODACA", "NOM_ASEN": "PUEBLO NUEVO QUINTO SECTOR", "TIPO": "COLONIA", "Shape_Leng": 3083.1966139199999, "Shape_Area": 559003.02493399999 }, "geometry": { "type": "Point", "coordinates": [ -100.15987, 25.7561 ] } },
{ "type": "Feature", "properties": { "id": "here:pds:place:484jx7ps-27441f9d789d0da4d2065745ce6344a5", "origin_id": 11230950, "title": "Salvador de Apodaca y Loreto", "label": "Salvador de Apodaca y Loreto, Privada Río Orinoco 308, Pueblo Nuevo 5to Sector, 66646 Apodaca, NL, México", "distance": 5026.0, "categories": "800-8250-0000;800-8250-0287", "CVEGEO": "1900600010175", "CVE_ENT": "19", "CVE_MUN": "006", "CVE_LOC": "0001", "CVE_ASEN": "0175", "CP": "66646", "FECHA_ACT": "11/2024", "INSTITUCIO": "SECRETARÍA DE DESARROLLO URBANO, OBRAS PÚBLICAS, ECOLOGÍA Y TRANSPORTE DE APODACA", "NOM_ASEN": "PUEBLO NUEVO QUINTO SECTOR", "TIPO": "COLONIA", "Shape_Leng": 3083.1966139199999, "Shape_Area": 559003.02493399999 }, "geometry": { "type": "Point", "coordinates": [ -100.15987, 25.7561 ] } },
{ "type": "Feature", "properties": { "id": "here:pds:place:4849u8f2-7fdb2177bf047b67375414c327c61129", "origin_id": 11230950, "title": "Heriberto Jara Corona", "label": "Heriberto Jara Corona, Calle Misión San Francisco, Fracc Misión de Huinalá 1er Sector, 66646 Apodaca, NL, México", "distance": 5059.0, "categories": "800-8250-0000;700-7400-0286", "CVEGEO": "1900600010407", "CVE_ENT": "19", "CVE_MUN": "006", "CVE_LOC": "0001", "CVE_ASEN": "0407", "CP": "66646", "FECHA_ACT": "11/2024", "INSTITUCIO": "SECRETARÍA DE DESARROLLO URBANO, OBRAS PÚBLICAS, ECOLOGÍA Y TRANSPORTE DE APODACA", "NOM_ASEN": "MISIÓN DE HUINALÁ SEGUNDO SECTOR", "TIPO": "FRACCIONAMIENTO", "Shape_Leng": 2090.0228282100002, "Shape_Area": 110242.65126499999 }, "geometry": { "type": "Point", "coordinates": [ -100.16042, 25.75132 ] } },
{ "type": "Feature", "properties": { "id": "here:pds:place:484jx7ps-860dd92b46f406f0f3e75687e8ad7033", "origin_id": 11230950, "title": "Niño Artillero", "label": "Niño Artillero, Calle Río Nazas 125, Pueblo Nuevo 3er Sector, 66646 Apodaca, NL, México", "distance": 5070.0, "categories": "800-8250-0000;700-7400-0286", "CVEGEO": "1900600010173", "CVE_ENT": "19", "CVE_MUN": "006", "CVE_LOC": "0001", "CVE_ASEN": "0173", "CP": "66646", "FECHA_ACT": "11/2024", "INSTITUCIO": "SECRETARÍA DE DESARROLLO URBANO, OBRAS PÚBLICAS, ECOLOGÍA Y TRANSPORTE DE APODACA", "NOM_ASEN": "PUEBLO NUEVO TERCER SECTOR", "TIPO": "COLONIA", "Shape_Leng": 2765.7195235700001, "Shape_Area": 317270.33355500002 }, "geometry": { "type": "Point", "coordinates": [ -100.16002, 25.75836 ] } },
{ "type": "Feature", "properties": { "id": "here:pds:place:484jx7ps-94392f2ef1c70beba1e5d98f481d476c", "origin_id": 11230950, "title": "jardín de Niños Priscila", "label": "jardín de Niños Priscila, Calle Río de la Plata, Pueblo Nuevo 3er Sector, 66646 Apodaca, NL, México", "distance": 5120.0, "categories": "800-8250-0000", "CVEGEO": "1900600010173", "CVE_ENT": "19", "CVE_MUN": "006", "CVE_LOC": "0001", "CVE_ASEN": "0173", "CP": "66646", "FECHA_ACT": "11/2024", "INSTITUCIO": "SECRETARÍA DE DESARROLLO URBANO, OBRAS PÚBLICAS, ECOLOGÍA Y TRANSPORTE DE APODACA", "NOM_ASEN": "PUEBLO NUEVO TERCER SECTOR", "TIPO": "COLONIA", "Shape_Leng": 2765.7195235700001, "Shape_Area": 317270.33355500002 }, "geometry": { "type": "Point", "coordinates": [ -100.16025, 25.75991 ] } },
{ "type": "Feature", "properties": { "id": "here:pds:place:484jx7ps-511a0ba7fc030613054caea44668a6d4", "origin_id": 11230950, "title": "Mariano de la Garza", "label": "Mariano de la Garza, Calle Río Rhin, Pueblo Nuevo 3er Sector, 66646 Apodaca, NL, México", "distance": 5143.0, "categories": "800-8250-0000;700-7400-0147;800-8250-0287", "CVEGEO": "1900600010173", "CVE_ENT": "19", "CVE_MUN": "006", "CVE_LOC": "0001", "CVE_ASEN": "0173", "CP": "66646", "FECHA_ACT": "11/2024", "INSTITUCIO": "SECRETARÍA DE DESARROLLO URBANO, OBRAS PÚBLICAS, ECOLOGÍA Y TRANSPORTE DE APODACA", "NOM_ASEN": "PUEBLO NUEVO TERCER SECTOR", "TIPO": "COLONIA", "Shape_Leng": 2765.7195235700001, "Shape_Area": 317270.33355500002 }, "geometry": { "type": "Point", "coordinates": [ -100.16063, 25.75912 ] } },
{ "type": "Feature", "properties": { "id": "here:pds:place:4849u8f8-7e02c58f2e1d6469eda39fc53df88521", "origin_id": 11230950, "title": "Fernando Trejo Carrillo", "label": "Fernando Trejo Carrillo, Avenida Río Pilón, Pueblo Nuevo 5to Sector, 66646 Apodaca, NL, México", "distance": 5176.0, "categories": "800-8250-0287;800-8250-0000", "CVEGEO": "1900600010175", "CVE_ENT": "19", "CVE_MUN": "006", "CVE_LOC": "0001", "CVE_ASEN": "0175", "CP": "66646", "FECHA_ACT": "11/2024", "INSTITUCIO": "SECRETARÍA DE DESARROLLO URBANO, OBRAS PÚBLICAS, ECOLOGÍA Y TRANSPORTE DE APODACA", "NOM_ASEN": "PUEBLO NUEVO QUINTO SECTOR", "TIPO": "COLONIA", "Shape_Leng": 3083.1966139199999, "Shape_Area": 559003.02493399999 }, "geometry": { "type": "Point", "coordinates": [ -100.16109, 25.75834 ] } },
{ "type": "Feature", "properties": { "id": "here:pds:place:484jx7ps-308c4298807f03af1b62554a6e7f91bc", "origin_id": 11230950, "title": "Rogelio Venegas Cabrera", "label": "Rogelio Venegas Cabrera, Calle Río Blanco 100, Pueblo Nuevo 3er Sector, 66646 Apodaca, NL, México", "distance": 5191.0, "categories": "800-8250-0000;800-8250-0287", "CVEGEO": "1900600010173", "CVE_ENT": "19", "CVE_MUN": "006", "CVE_LOC": "0001", "CVE_ASEN": "0173", "CP": "66646", "FECHA_ACT": "11/2024", "INSTITUCIO": "SECRETARÍA DE DESARROLLO URBANO, OBRAS PÚBLICAS, ECOLOGÍA Y TRANSPORTE DE APODACA", "NOM_ASEN": "PUEBLO NUEVO TERCER SECTOR", "TIPO": "COLONIA", "Shape_Leng": 2765.7195235700001, "Shape_Area": 317270.33355500002 }, "geometry": { "type": "Point", "coordinates": [ -100.16112, 25.75907 ] } },
{ "type": "Feature", "properties": { "id": "here:pds:place:4849u8f2-f8e7aeb9b50a4f97978e5fafa9eb1c2e", "origin_id": 11230950, "title": "Inrl Site", "label": "Inrl Site, Calle Gaspar Castaño 1000, Fracc Real Hda de Huinalá 1er Sec, 66644 Apodaca, NL, México", "distance": 5259.0, "categories": "800-8250-0000", "CVEGEO": "1900600010177", "CVE_ENT": "19", "CVE_MUN": "006", "CVE_LOC": "0001", "CVE_ASEN": "0177", "CP": "66644", "FECHA_ACT": "11/2024", "INSTITUCIO": "SECRETARÍA DE DESARROLLO URBANO, OBRAS PÚBLICAS, ECOLOGÍA Y TRANSPORTE DE APODACA", "NOM_ASEN": "REAL HACIENDA DE HUINALÁ PRIMER SECTOR E-1", "TIPO": "COLONIA", "Shape_Leng": 1295.5886369, "Shape_Area": 96833.842503099993 }, "geometry": { "type": "Point", "coordinates": [ -100.16022, 25.73833 ] } },
{ "type": "Feature", "properties": { "id": "here:pds:place:484jx7ps-dd61e0013759005487263b38655a7a48", "origin_id": 11230950, "title": "Escuela Municipal de Música Apodaca - Pueblo Nuevo", "label": "Escuela Municipal de Música Apodaca - Pueblo Nuevo, Avenida Río Pilón, Pueblo Nuevo 5to Sector, 66646 Apodaca, NL, México", "distance": 5267.0, "categories": "800-8250-0000;800-8200-0361", "CVEGEO": "1900600010173", "CVE_ENT": "19", "CVE_MUN": "006", "CVE_LOC": "0001", "CVE_ASEN": "0173", "CP": "66646", "FECHA_ACT": "11/2024", "INSTITUCIO": "SECRETARÍA DE DESARROLLO URBANO, OBRAS PÚBLICAS, ECOLOGÍA Y TRANSPORTE DE APODACA", "NOM_ASEN": "PUEBLO NUEVO TERCER SECTOR", "TIPO": "COLONIA", "Shape_Leng": 2765.7195235700001, "Shape_Area": 317270.33355500002 }, "geometry": { "type": "Point", "coordinates": [ -100.16181, 25.75953 ] } },
{ "type": "Feature", "properties": { "id": "here:pds:place:4849u8f8-055c1b6220013eca738f79d034cb6ac5", "origin_id": 11230950, "title": "c. A. M. Ma. Refugio Armandina G. M.", "label": "c. A. M. Ma. Refugio Armandina G. M., Avenida Río Pilón, Pueblo Nuevo 3er Sector, 66646 Apodaca, NL, México", "distance": 5267.0, "categories": "800-8250-0000;800-8200-0000", "CVEGEO": "1900600010173", "CVE_ENT": "19", "CVE_MUN": "006", "CVE_LOC": "0001", "CVE_ASEN": "0173", "CP": "66646", "FECHA_ACT": "11/2024", "INSTITUCIO": "SECRETARÍA DE DESARROLLO URBANO, OBRAS PÚBLICAS, ECOLOGÍA Y TRANSPORTE DE APODACA", "NOM_ASEN": "PUEBLO NUEVO TERCER SECTOR", "TIPO": "COLONIA", "Shape_Leng": 2765.7195235700001, "Shape_Area": 317270.33355500002 }, "geometry": { "type": "Point", "coordinates": [ -100.16181, 25.75953 ] } },
{ "type": "Feature", "properties": { "id": "here:pds:place:4849u8f2-5be8d4b586fa57d3e16c03c25e3220b5", "origin_id": 11230950, "title": "Instituto Benedic", "label": "Instituto Benedic, Calle Rafael Platón Sánchez 320, Huinalá, 66640 Apodaca, NL, México", "distance": 5323.0, "categories": "800-8250-0000;700-7400-0286;800-8200-0000", "CVEGEO": "1900600010071", "CVE_ENT": "19", "CVE_MUN": "006", "CVE_LOC": "0001", "CVE_ASEN": "0071", "CP": "66640", "FECHA_ACT": "11/2024", "INSTITUCIO": "SECRETARÍA DE DESARROLLO URBANO, OBRAS PÚBLICAS, ECOLOGÍA Y TRANSPORTE DE APODACA", "NOM_ASEN": "HUINALÁ", "TIPO": "COLONIA", "Shape_Leng": 7098.8413938399999, "Shape_Area": 975235.65223200002 }, "geometry": { "type": "Point", "coordinates": [ -100.16134, 25.73979 ] } },
{ "type": "Feature", "properties": { "id": "here:pds:place:4849u8f2-6c5a707923779f677b593db45eccec36", "origin_id": 11230950, "title": "Colegio Gerónimo Treviño", "label": "Colegio Gerónimo Treviño, Calle Doctor Coss 208, Huinalá, 66640 Apodaca, NL, México", "distance": 5337.0, "categories": "800-8250-0287;700-7400-0286;800-8250-0000", "CVEGEO": "1900600010071", "CVE_ENT": "19", "CVE_MUN": "006", "CVE_LOC": "0001", "CVE_ASEN": "0071", "CP": "66640", "FECHA_ACT": "11/2024", "INSTITUCIO": "SECRETARÍA DE DESARROLLO URBANO, OBRAS PÚBLICAS, ECOLOGÍA Y TRANSPORTE DE APODACA", "NOM_ASEN": "HUINALÁ", "TIPO": "COLONIA", "Shape_Leng": 7098.8413938399999, "Shape_Area": 975235.65223200002 }, "geometry": { "type": "Point", "coordinates": [ -100.16208, 25.74208 ] } },
{ "type": "Feature", "properties": { "id": "here:pds:place:48480f9e-343c6b80b74d707e34d6f41aa37be9bb", "origin_id": 11230950, "title": "Teniente Coronel Crispín Treviño", "label": "Teniente Coronel Crispín Treviño, Calle Benito Juárez 200, Huinalá, 66640 Apodaca, NL, México", "distance": 5339.0, "categories": "800-8250-0000;800-8250-0287", "CVEGEO": "1900600010071", "CVE_ENT": "19", "CVE_MUN": "006", "CVE_LOC": "0001", "CVE_ASEN": "0071", "CP": "66640", "FECHA_ACT": "11/2024", "INSTITUCIO": "SECRETARÍA DE DESARROLLO URBANO, OBRAS PÚBLICAS, ECOLOGÍA Y TRANSPORTE DE APODACA", "NOM_ASEN": "HUINALÁ", "TIPO": "COLONIA", "Shape_Leng": 7098.8413938399999, "Shape_Area": 975235.65223200002 }, "geometry": { "type": "Point", "coordinates": [ -100.16227, 25.74286 ] } },
{ "type": "Feature", "properties": { "id": "here:pds:place:484jx7ps-b00a6232e0f60fed0dfce6aca2584d53", "origin_id": 11230950, "title": "Secundaria Tecnica Num 73 Germán Gedovius Huerta", "label": "Secundaria Tecnica Num 73 Germán Gedovius Huerta, Calle Río Ganges, Pueblo Nuevo 3er Sector, 66646 Apodaca, NL, México", "distance": 5463.0, "categories": "800-8250-0000;800-8250-0287;800-8250-0288", "CVEGEO": "1900600010173", "CVE_ENT": "19", "CVE_MUN": "006", "CVE_LOC": "0001", "CVE_ASEN": "0173", "CP": "66646", "FECHA_ACT": "11/2024", "INSTITUCIO": "SECRETARÍA DE DESARROLLO URBANO, OBRAS PÚBLICAS, ECOLOGÍA Y TRANSPORTE DE APODACA", "NOM_ASEN": "PUEBLO NUEVO TERCER SECTOR", "TIPO": "COLONIA", "Shape_Leng": 2765.7195235700001, "Shape_Area": 317270.33355500002 }, "geometry": { "type": "Point", "coordinates": [ -100.16318, 25.76245 ] } },
{ "type": "Feature", "properties": { "id": "here:pds:place:4849u8f2-dad1fd02bf797ddf79285a1d24cc7d93", "origin_id": 11230950, "title": "Ignacio Comonfort", "label": "Ignacio Comonfort, Calle Valentín Canalizo, Fracc Balcones de Huinalá 2do Sec, 66644 Apodaca, NL, México", "distance": 5561.0, "categories": "700-7400-0286;800-8250-0000", "CVEGEO": "1900600010010", "CVE_ENT": "19", "CVE_MUN": "006", "CVE_LOC": "0001", "CVE_ASEN": "0010", "CP": "66640", "FECHA_ACT": "11/2024", "INSTITUCIO": "SECRETARÍA DE DESARROLLO URBANO, OBRAS PÚBLICAS, ECOLOGÍA Y TRANSPORTE DE APODACA", "NOM_ASEN": "BALCONES DE HUINALÁ SEGUNDO SECTOR", "TIPO": "COLONIA", "Shape_Leng": 1454.20186195, "Shape_Area": 104673.481705 }, "geometry": { "type": "Point", "coordinates": [ -100.16343, 25.73855 ] } },
{ "type": "Feature", "properties": { "id": "here:pds:place:484jx7ps-c557f634ba6b00765a324a644027e32f", "origin_id": 11230950, "title": "Juan Sánchez Camacho", "label": "Juan Sánchez Camacho, Calle Río Usumacinta 720, Pueblo Nuevo 5to Sector, 66646 Apodaca, NL, México", "distance": 5600.0, "categories": "800-8250-0000;800-8200-0000;800-8250-0287", "CVEGEO": "1900600010175", "CVE_ENT": "19", "CVE_MUN": "006", "CVE_LOC": "0001", "CVE_ASEN": "0175", "CP": "66646", "FECHA_ACT": "11/2024", "INSTITUCIO": "SECRETARÍA DE DESARROLLO URBANO, OBRAS PÚBLICAS, ECOLOGÍA Y TRANSPORTE DE APODACA", "NOM_ASEN": "PUEBLO NUEVO QUINTO SECTOR", "TIPO": "COLONIA", "Shape_Leng": 3083.1966139199999, "Shape_Area": 559003.02493399999 }, "geometry": { "type": "Point", "coordinates": [ -100.16537, 25.75825 ] } },
{ "type": "Feature", "properties": { "id": "here:pds:place:484jx7ps-abfb6926dcaa0017a5f7b91b7c7bcf76", "origin_id": 11230950, "title": "Gral Guadalupe Victoria", "label": "Gral Guadalupe Victoria, Calle Río de la Paz, Pueblo Nuevo 5to Sector, 66646 Apodaca, NL, México", "distance": 5711.0, "categories": "800-8250-0000;700-7400-0286", "CVEGEO": "1900600010175", "CVE_ENT": "19", "CVE_MUN": "006", "CVE_LOC": "0001", "CVE_ASEN": "0175", "CP": "66646", "FECHA_ACT": "11/2024", "INSTITUCIO": "SECRETARÍA DE DESARROLLO URBANO, OBRAS PÚBLICAS, ECOLOGÍA Y TRANSPORTE DE APODACA", "NOM_ASEN": "PUEBLO NUEVO QUINTO SECTOR", "TIPO": "COLONIA", "Shape_Leng": 3083.1966139199999, "Shape_Area": 559003.02493399999 }, "geometry": { "type": "Point", "coordinates": [ -100.16653, 25.75797 ] } },
{ "type": "Feature", "properties": { "id": "here:pds:place:48454e85-423ace2762ab8a7e279077feec446ba4", "origin_id": 11230950, "title": "Martha Elizondo de Treviño", "label": "Martha Elizondo de Treviño, Calle General Juan Zuazua, Huinalá, 66640 Apodaca, NL, México", "distance": 5715.0, "categories": "800-8250-0000;700-7400-0286", "CVEGEO": "1900600010071", "CVE_ENT": "19", "CVE_MUN": "006", "CVE_LOC": "0001", "CVE_ASEN": "0071", "CP": "66640", "FECHA_ACT": "11/2024", "INSTITUCIO": "SECRETARÍA DE DESARROLLO URBANO, OBRAS PÚBLICAS, ECOLOGÍA Y TRANSPORTE DE APODACA", "NOM_ASEN": "HUINALÁ", "TIPO": "COLONIA", "Shape_Leng": 7098.8413938399999, "Shape_Area": 975235.65223200002 }, "geometry": { "type": "Point", "coordinates": [ -100.16611, 25.74294 ] } },
{ "type": "Feature", "properties": { "id": "here:pds:place:484jx7ps-b61f019f1d02096066407530fc45e4af", "origin_id": 11230950, "title": "Cecati No. 192", "label": "Cecati No. 192, Calle Río Usumacinta, Pueblo Nuevo 5to Sector, 66646 Apodaca, NL, México", "distance": 5738.0, "categories": "800-8200-0173", "CVEGEO": "1900600010175", "CVE_ENT": "19", "CVE_MUN": "006", "CVE_LOC": "0001", "CVE_ASEN": "0175", "CP": "66646", "FECHA_ACT": "11/2024", "INSTITUCIO": "SECRETARÍA DE DESARROLLO URBANO, OBRAS PÚBLICAS, ECOLOGÍA Y TRANSPORTE DE APODACA", "NOM_ASEN": "PUEBLO NUEVO QUINTO SECTOR", "TIPO": "COLONIA", "Shape_Leng": 3083.1966139199999, "Shape_Area": 559003.02493399999 }, "geometry": { "type": "Point", "coordinates": [ -100.16679, 25.75806 ] } },
{ "type": "Feature", "properties": { "id": "here:pds:place:484jx7ps-bd30b34f5a19041ab4c3dcaac3e2052f", "origin_id": 11230950, "title": "Alberto Garza González", "label": "Alberto Garza González, Calle Río Uruguay 112, Pueblo Nuevo 4to Sector, 66646 Apodaca, NL, México", "distance": 5871.0, "categories": "800-8250-0000;800-8250-0287", "CVEGEO": "1900600010174", "CVE_ENT": "19", "CVE_MUN": "006", "CVE_LOC": "0001", "CVE_ASEN": "0174", "CP": "66646", "FECHA_ACT": "11/2024", "INSTITUCIO": "SECRETARÍA DE DESARROLLO URBANO, OBRAS PÚBLICAS, ECOLOGÍA Y TRANSPORTE DE APODACA", "NOM_ASEN": "PUEBLO NUEVO CUARTO SECTOR", "TIPO": "COLONIA", "Shape_Leng": 3878.9388214000001, "Shape_Area": 384352.43033300003 }, "geometry": { "type": "Point", "coordinates": [ -100.16765, 25.761 ] } },
{ "type": "Feature", "properties": { "id": "here:pds:place:484jx7ps-a240132a18e309a91ea8c63f2e0af5a2", "origin_id": 11230950, "title": "Instituto Ellen G White", "label": "Instituto Ellen G White, Calle Porfirio Díaz, Fracc Balcones de Huinalá 1er Sec, 66644 Apodaca, NL, México", "distance": 5952.0, "categories": "800-8250-0000;700-7400-0286;800-8250-0287", "CVEGEO": "1900600010325", "CVE_ENT": "19", "CVE_MUN": "006", "CVE_LOC": "0001", "CVE_ASEN": "0325", "CP": "66640", "FECHA_ACT": "11/2024", "INSTITUCIO": "SECRETARÍA DE DESARROLLO URBANO, OBRAS PÚBLICAS, ECOLOGÍA Y TRANSPORTE DE APODACA", "NOM_ASEN": "HACIENDA SAN GERARDO", "TIPO": "FRACCIONAMIENTO", "Shape_Leng": 859.39996881499997, "Shape_Area": 44298.063829699997 }, "geometry": { "type": "Point", "coordinates": [ -100.16793, 25.74029 ] } },
{ "type": "Feature", "properties": { "id": "here:pds:place:4849u8f8-8533bebcf6ce348856417af1112690c9", "origin_id": 11230950, "title": "Unidad de Educación Infantil", "label": "Unidad de Educación Infantil, Calle Topo Chico, Parque Industrial Monterrey, 66603 Apodaca, NL, México", "distance": 5967.0, "categories": "800-8250-0000;700-7400-0286", "CVEGEO": "1900600010142", "CVE_ENT": "19", "CVE_MUN": "006", "CVE_LOC": "0001", "CVE_ASEN": "0142", "CP": "66603", "FECHA_ACT": "11/2024", "INSTITUCIO": "SECRETARÍA DE DESARROLLO URBANO, OBRAS PÚBLICAS, ECOLOGÍA Y TRANSPORTE DE APODACA", "NOM_ASEN": "PARQUE INDUSTRIAL MONTERREY", "TIPO": "ZONA INDUSTRIAL", "Shape_Leng": 4585.7059447800002, "Shape_Area": 943880.602312 }, "geometry": { "type": "Point", "coordinates": [ -100.16607, 25.76978 ] } },
{ "type": "Feature", "properties": { "id": "here:pds:place:4849u8f8-044dee0f63dac3229a9a2cfc8c9698d5", "origin_id": 11230950, "title": "Secundaria Tecnica Num 43 Adalberto Adrián Viesca Sada", "label": "Secundaria Tecnica Num 43 Adalberto Adrián Viesca Sada, Calle Río Iguazú, Pueblo Nuevo 4to Sector, 66646 Apodaca, NL, México", "distance": 6006.0, "categories": "800-8250-0000;800-8250-0287", "CVEGEO": "1900600010174", "CVE_ENT": "19", "CVE_MUN": "006", "CVE_LOC": "0001", "CVE_ASEN": "0174", "CP": "66646", "FECHA_ACT": "11/2024", "INSTITUCIO": "SECRETARÍA DE DESARROLLO URBANO, OBRAS PÚBLICAS, ECOLOGÍA Y TRANSPORTE DE APODACA", "NOM_ASEN": "PUEBLO NUEVO CUARTO SECTOR", "TIPO": "COLONIA", "Shape_Leng": 3878.9388214000001, "Shape_Area": 384352.43033300003 }, "geometry": { "type": "Point", "coordinates": [ -100.16889, 25.76163 ] } },
{ "type": "Feature", "properties": { "id": "here:pds:place:4849u8f8-1b786285e3a04c22b745bb68a8918c71", "origin_id": 11230950, "title": "Centro de Desarrollo Comunitario Pueblo Nuevo", "label": "Centro de Desarrollo Comunitario Pueblo Nuevo, Calle Río Guadiana 169, Pueblo Nuevo 4to Sector, 66646 Apodaca, NL, México", "distance": 6045.0, "categories": "800-8100-0169;700-7400-0147;800-8100-0000;800-8250-0000", "CVEGEO": "1900600010174", "CVE_ENT": "19", "CVE_MUN": "006", "CVE_LOC": "0001", "CVE_ASEN": "0174", "CP": "66646", "FECHA_ACT": "11/2024", "INSTITUCIO": "SECRETARÍA DE DESARROLLO URBANO, OBRAS PÚBLICAS, ECOLOGÍA Y TRANSPORTE DE APODACA", "NOM_ASEN": "PUEBLO NUEVO CUARTO SECTOR", "TIPO": "COLONIA", "Shape_Leng": 3878.9388214000001, "Shape_Area": 384352.43033300003 }, "geometry": { "type": "Point", "coordinates": [ -100.1694, 25.76106 ] } },
{ "type": "Feature", "properties": { "id": "here:pds:place:4849u8f2-e32ab4bc81e601c94ca82a95728d0632", "origin_id": 11230950, "title": "Centro Kumon Plaza Sabinal", "label": "Centro Kumon Plaza Sabinal, Carretera Apodaca Huinalá Villa Juárez, Parque Industrial El Sabinal, 66645 Apodaca, NL, México", "distance": 6180.0, "categories": "800-8200-0360", "CVEGEO": "1900600010412", "CVE_ENT": "19", "CVE_MUN": "006", "CVE_LOC": "0001", "CVE_ASEN": "0412", "CP": "66645", "FECHA_ACT": "11/2024", "INSTITUCIO": "SECRETARÍA DE DESARROLLO URBANO, OBRAS PÚBLICAS, ECOLOGÍA Y TRANSPORTE DE APODACA", "NOM_ASEN": "PARQUE INDUSTRIAL EL SABINAL", "TIPO": "ZONA INDUSTRIAL", "Shape_Leng": 4442.3587141099997, "Shape_Area": 1094081.1213100001 }, "geometry": { "type": "Point", "coordinates": [ -100.17158, 25.75367 ] } },
{ "type": "Feature", "properties": { "id": "here:pds:place:4849u8f8-d3a4adedd4e6fce0c2ca3922642f3fc7", "origin_id": 11230950, "title": "Escuela Rosario Garza Sada", "label": "Escuela Rosario Garza Sada, Avenida Río Tíbet, Pueblo Nuevo 4to Sector, 66646 Apodaca, NL, México", "distance": 6220.0, "categories": "800-8250-0000", "CVEGEO": "1900600010174", "CVE_ENT": "19", "CVE_MUN": "006", "CVE_LOC": "0001", "CVE_ASEN": "0174", "CP": "66646", "FECHA_ACT": "11/2024", "INSTITUCIO": "SECRETARÍA DE DESARROLLO URBANO, OBRAS PÚBLICAS, ECOLOGÍA Y TRANSPORTE DE APODACA", "NOM_ASEN": "PUEBLO NUEVO CUARTO SECTOR", "TIPO": "COLONIA", "Shape_Leng": 3878.9388214000001, "Shape_Area": 384352.43033300003 }, "geometry": { "type": "Point", "coordinates": [ -100.17103, 25.76182 ] } },
{ "type": "Feature", "properties": { "id": "here:pds:place:4849u8f2-ec9f0e8a4ddf406fb0211aa5c827f6e3", "origin_id": 11230950, "title": "Félix G Lozano", "label": "Félix G Lozano, Circuito Virreyes Oriente, Jardines del Virrey, 66645 Apodaca, NL, México", "distance": 6266.0, "categories": "800-8250-0000;800-8250-0287", "CVEGEO": "1900600010089", "CVE_ENT": "19", "CVE_MUN": "006", "CVE_LOC": "0001", "CVE_ASEN": "0089", "CP": "66645", "FECHA_ACT": "11/2024", "INSTITUCIO": "SECRETARÍA DE DESARROLLO URBANO, OBRAS PÚBLICAS, ECOLOGÍA Y TRANSPORTE DE APODACA", "NOM_ASEN": "JARDINES DEL VIRREY", "TIPO": "COLONIA", "Shape_Leng": 1736.5035600199999, "Shape_Area": 124490.40078700001 }, "geometry": { "type": "Point", "coordinates": [ -100.17234, 25.74816 ] } },
{ "type": "Feature", "properties": { "id": "here:pds:place:484jx7ps-4daf0b4917a80ad19bfa2ab30db65f2c", "origin_id": 11230950, "title": "Rosario Garza Sada", "label": "Rosario Garza Sada, Privada Río Aguarico, Pueblo Nuevo 4to Sector, 66646 Apodaca, NL, México", "distance": 6270.0, "categories": "800-8250-0000;700-7400-0286;800-8200-0000", "CVEGEO": "1900600010174", "CVE_ENT": "19", "CVE_MUN": "006", "CVE_LOC": "0001", "CVE_ASEN": "0174", "CP": "66646", "FECHA_ACT": "11/2024", "INSTITUCIO": "SECRETARÍA DE DESARROLLO URBANO, OBRAS PÚBLICAS, ECOLOGÍA Y TRANSPORTE DE APODACA", "NOM_ASEN": "PUEBLO NUEVO CUARTO SECTOR", "TIPO": "COLONIA", "Shape_Leng": 3878.9388214000001, "Shape_Area": 384352.43033300003 }, "geometry": { "type": "Point", "coordinates": [ -100.17155, 25.76175 ] } },
{ "type": "Feature", "properties": { "id": "here:pds:place:484httek-df37299c8bc90eab428c64b7c5ce1bf2", "origin_id": 9237837, "title": "Manuel Sandoval Vallarta Instituto", "label": "Manuel Sandoval Vallarta Instituto, Calle Arce 719, Fracc Jacarandas 2do Sector, 66634 Apodaca, NL, México", "distance": 2052.0, "categories": "800-8250-0000;700-7400-0286", "CVEGEO": "1900600010326", "CVE_ENT": "19", "CVE_MUN": "006", "CVE_LOC": "0001", "CVE_ASEN": "0326", "CP": "66634", "FECHA_ACT": "11/2024", "INSTITUCIO": "SECRETARÍA DE DESARROLLO URBANO, OBRAS PÚBLICAS, ECOLOGÍA Y TRANSPORTE DE APODACA", "NOM_ASEN": "JACARANDAS SEGUNDO SECTOR", "TIPO": "COLONIA", "Shape_Leng": 1670.94795305, "Shape_Area": 132377.567339 }, "geometry": { "type": "Point", "coordinates": [ -100.19042, 25.74811 ] } },
{ "type": "Feature", "properties": { "id": "here:pds:place:484httek-a0fb5421d8b30bf15c36c5aa7b9466a5", "origin_id": 9237837, "title": "Centro Educativo Huinala", "label": "Centro Educativo Huinala, Boulevard Julián Treviño Elizondo Garza 1000A, Pueblo Huinalá, 66640 Apodaca, NL, México", "distance": 2479.0, "categories": "800-8250-0000;700-7400-0286;800-8200-0000;800-8250-0287", "CVEGEO": "1900600010242", "CVE_ENT": "19", "CVE_MUN": "006", "CVE_LOC": "0001", "CVE_ASEN": "0242", "CP": "66634", "FECHA_ACT": "11/2024", "INSTITUCIO": "SECRETARÍA DE DESARROLLO URBANO, OBRAS PÚBLICAS, ECOLOGÍA Y TRANSPORTE DE APODACA", "NOM_ASEN": "PARQUE INDUSTRIAL VILLAS DE HUINALÁ I", "TIPO": "ZONA INDUSTRIAL", "Shape_Leng": 2960.7818807100002, "Shape_Area": 241984.31082700001 }, "geometry": { "type": "Point", "coordinates": [ -100.18303, 25.74492 ] } },
{ "type": "Feature", "properties": { "id": "here:pds:place:4849u8f2-697817bc17a14a7ba5b6c80e87bee860", "origin_id": 3039408, "title": "Profra Ofelia Carrillo Cepeda", "label": "Profra Ofelia Carrillo Cepeda, Calle Tamaulipas, Fraccionamiento San Andrés, 66640 Apodaca, NL, México", "distance": 784.0, "categories": "800-8250-0000;700-7400-0286", "CVEGEO": "1900600010190", "CVE_ENT": "19", "CVE_MUN": "006", "CVE_LOC": "0001", "CVE_ASEN": "0190", "CP": "66640", "FECHA_ACT": "11/2024", "INSTITUCIO": "SECRETARÍA DE DESARROLLO URBANO, OBRAS PÚBLICAS, ECOLOGÍA Y TRANSPORTE DE APODACA", "NOM_ASEN": "SAN ANDRÉS PRIMER SECTOR", "TIPO": "COLONIA", "Shape_Leng": 2241.2839899300002, "Shape_Area": 166857.90289900001 }, "geometry": { "type": "Point", "coordinates": [ -100.1739, 25.7413 ] } },
{ "type": "Feature", "properties": { "id": "here:pds:place:484jx7ps-c683a1702de908461c5169c6481a6cd8", "origin_id": 3039408, "title": "Belisario Domínguez Palencia", "label": "Belisario Domínguez Palencia, Calle Jalisco, Fraccionamiento San Andrés, 66640 Apodaca, NL, México", "distance": 818.0, "categories": "800-8250-0000;800-8250-0287", "CVEGEO": "1900600010190", "CVE_ENT": "19", "CVE_MUN": "006", "CVE_LOC": "0001", "CVE_ASEN": "0190", "CP": "66640", "FECHA_ACT": "11/2024", "INSTITUCIO": "SECRETARÍA DE DESARROLLO URBANO, OBRAS PÚBLICAS, ECOLOGÍA Y TRANSPORTE DE APODACA", "NOM_ASEN": "SAN ANDRÉS PRIMER SECTOR", "TIPO": "COLONIA", "Shape_Leng": 2241.2839899300002, "Shape_Area": 166857.90289900001 }, "geometry": { "type": "Point", "coordinates": [ -100.17394, 25.74202 ] } },
{ "type": "Feature", "properties": { "id": "here:pds:place:4849u8f2-2be2b77ea6a9d3df1e63b6e05867a81d", "origin_id": 3039408, "title": "Instituto Soles y Estrellas", "label": "Instituto Soles y Estrellas, Circuito Virreyes Sur 125, Jardines del Virrey, 66645 Apodaca, NL, México", "distance": 1029.0, "categories": "800-8250-0000;700-7400-0286", "CVEGEO": "1900600010089", "CVE_ENT": "19", "CVE_MUN": "006", "CVE_LOC": "0001", "CVE_ASEN": "0089", "CP": "66645", "FECHA_ACT": "11/2024", "INSTITUCIO": "SECRETARÍA DE DESARROLLO URBANO, OBRAS PÚBLICAS, ECOLOGÍA Y TRANSPORTE DE APODACA", "NOM_ASEN": "JARDINES DEL VIRREY", "TIPO": "COLONIA", "Shape_Leng": 1736.5035600199999, "Shape_Area": 124490.40078700001 }, "geometry": { "type": "Point", "coordinates": [ -100.17401, 25.74523 ] } },
{ "type": "Feature", "properties": { "id": "here:pds:place:4849u8f2-bc8c70f77fb37a64f05ac5c7fc3eb026", "origin_id": 3039408, "title": "Crispín Treviño", "label": "Crispín Treviño, Circuito Virreyes Poniente, Jardines del Virrey, 66645 Apodaca, NL, México", "distance": 1233.0, "categories": "700-7400-0286;800-8250-0000", "CVEGEO": "1900600010313", "CVE_ENT": "19", "CVE_MUN": "006", "CVE_LOC": "0001", "CVE_ASEN": "0313", "CP": "66645", "FECHA_ACT": "11/2024", "INSTITUCIO": "SECRETARÍA DE DESARROLLO URBANO, OBRAS PÚBLICAS, ECOLOGÍA Y TRANSPORTE DE APODACA", "NOM_ASEN": "HACIENDA DEL CARMEN", "TIPO": "COLONIA", "Shape_Leng": 1461.45235981, "Shape_Area": 141071.27377 }, "geometry": { "type": "Point", "coordinates": [ -100.17412, 25.74761 ] } },
{ "type": "Feature", "properties": { "id": "here:pds:place:4849u8f2-ce369664efc0921fa6634b6fec01d7e9", "origin_id": 3039408, "title": "Instituto de Formación Integral Nouveau", "label": "Instituto de Formación Integral Nouveau, Avenida del Teléfono 7027, Padilla, 66645 Apodaca, NL, México", "distance": 1391.0, "categories": "700-7200-0269;800-8250-0000", "CVEGEO": "1900600010313", "CVE_ENT": "19", "CVE_MUN": "006", "CVE_LOC": "0001", "CVE_ASEN": "0313", "CP": "66645", "FECHA_ACT": "11/2024", "INSTITUCIO": "SECRETARÍA DE DESARROLLO URBANO, OBRAS PÚBLICAS, ECOLOGÍA Y TRANSPORTE DE APODACA", "NOM_ASEN": "HACIENDA DEL CARMEN", "TIPO": "COLONIA", "Shape_Leng": 1461.45235981, "Shape_Area": 141071.27377 }, "geometry": { "type": "Point", "coordinates": [ -100.17755, 25.74651 ] } },
{ "type": "Feature", "properties": { "id": "here:pds:place:484jx7ps-eafb4c7deb1506ea058849ce07265044", "origin_id": 3044910, "title": "Universidad de Nueva Extremadura", "label": "Universidad de Nueva Extremadura, Avenida Ignacio Zaragoza, Apodaca Centro, 66600 Apodaca, NL, México", "distance": 113.0, "categories": "800-8200-0173", "CVEGEO": "1900600010017", "CVE_ENT": "19", "CVE_MUN": "006", "CVE_LOC": "0001", "CVE_ASEN": "0017", "CP": "66600", "FECHA_ACT": "11/2024", "INSTITUCIO": "SECRETARÍA DE DESARROLLO URBANO, OBRAS PÚBLICAS, ECOLOGÍA Y TRANSPORTE DE APODACA", "NOM_ASEN": "CABECERA MUNICIPAL (APODACA)", "TIPO": "COLONIA", "Shape_Leng": 10463.263806000001, "Shape_Area": 1836887.27205 }, "geometry": { "type": "Point", "coordinates": [ -100.1884, 25.77995 ] } },
{ "type": "Feature", "properties": { "id": "here:pds:place:484jx7ps-373d11d28d6d0fff61271b81c101265c", "origin_id": 3044910, "title": "Se Educa", "label": "Se Educa, Avenida José María Morelos, Apodaca Centro, 66600 Apodaca, NL, México", "distance": 138.0, "categories": "800-8200-0173", "CVEGEO": "1900600010017", "CVE_ENT": "19", "CVE_MUN": "006", "CVE_LOC": "0001", "CVE_ASEN": "0017", "CP": "66600", "FECHA_ACT": "11/2024", "INSTITUCIO": "SECRETARÍA DE DESARROLLO URBANO, OBRAS PÚBLICAS, ECOLOGÍA Y TRANSPORTE DE APODACA", "NOM_ASEN": "CABECERA MUNICIPAL (APODACA)", "TIPO": "COLONIA", "Shape_Leng": 10463.263806000001, "Shape_Area": 1836887.27205 }, "geometry": { "type": "Point", "coordinates": [ -100.18741, 25.78039 ] } },
{ "type": "Feature", "properties": { "id": "here:pds:place:484jx7ps-f6dbe8510c3402ad805a65c1b3469807", "origin_id": 3044910, "title": "Instituto Fleming Plantel Apodaca", "label": "Instituto Fleming Plantel Apodaca, Calle Mariano Matamoros 104, Apodaca Centro, 66600 Apodaca, NL, México", "distance": 164.0, "categories": "800-8250-0000;800-8200-0000;800-8250-0288", "CVEGEO": "1900600010017", "CVE_ENT": "19", "CVE_MUN": "006", "CVE_LOC": "0001", "CVE_ASEN": "0017", "CP": "66600", "FECHA_ACT": "11/2024", "INSTITUCIO": "SECRETARÍA DE DESARROLLO URBANO, OBRAS PÚBLICAS, ECOLOGÍA Y TRANSPORTE DE APODACA", "NOM_ASEN": "CABECERA MUNICIPAL (APODACA)", "TIPO": "COLONIA", "Shape_Leng": 10463.263806000001, "Shape_Area": 1836887.27205 }, "geometry": { "type": "Point", "coordinates": [ -100.18906, 25.77995 ] } },
{ "type": "Feature", "properties": { "id": "here:pds:place:484jx7ps-e16cfcb0b81f01d16d7ee6517d7782b9", "origin_id": 3044910, "title": "Dr Eusebio Guajardo", "label": "Dr Eusebio Guajardo, Calle Mariano Matamoros 101, Apodaca Centro, 66600 Apodaca, NL, México", "distance": 167.0, "categories": "800-8250-0000;700-7400-0286", "CVEGEO": "1900600010017", "CVE_ENT": "19", "CVE_MUN": "006", "CVE_LOC": "0001", "CVE_ASEN": "0017", "CP": "66600", "FECHA_ACT": "11/2024", "INSTITUCIO": "SECRETARÍA DE DESARROLLO URBANO, OBRAS PÚBLICAS, ECOLOGÍA Y TRANSPORTE DE APODACA", "NOM_ASEN": "CABECERA MUNICIPAL (APODACA)", "TIPO": "COLONIA", "Shape_Leng": 10463.263806000001, "Shape_Area": 1836887.27205 }, "geometry": { "type": "Point", "coordinates": [ -100.18904, 25.78003 ] } },
{ "type": "Feature", "properties": { "id": "here:pds:place:4849u8f8-e1525450a113734c1017eeac2578e3a3", "origin_id": 3044910, "title": "Mas Seguros", "label": "Mas Seguros, Apodaca Centro, 66600 Apodaca, NL, México", "distance": 233.0, "categories": "800-8200-0295;700-7200-0271", "CVEGEO": "1900600010017", "CVE_ENT": "19", "CVE_MUN": "006", "CVE_LOC": "0001", "CVE_ASEN": "0017", "CP": "66600", "FECHA_ACT": "11/2024", "INSTITUCIO": "SECRETARÍA DE DESARROLLO URBANO, OBRAS PÚBLICAS, ECOLOGÍA Y TRANSPORTE DE APODACA", "NOM_ASEN": "CABECERA MUNICIPAL (APODACA)", "TIPO": "COLONIA", "Shape_Leng": 10463.263806000001, "Shape_Area": 1836887.27205 }, "geometry": { "type": "Point", "coordinates": [ -100.18577, 25.77796 ] } },
{ "type": "Feature", "properties": { "id": "here:pds:place:484jx7ps-114f7f6a591305603006d04cdc3fe1b9", "origin_id": 3044910, "title": "Preparatoria Insuco", "label": "Preparatoria Insuco, Calle Miguel Hidalgo y Costilla, Apodaca Centro, 66600 Apodaca, NL, México", "distance": 240.0, "categories": "800-8200-0173", "CVEGEO": "1900600010017", "CVE_ENT": "19", "CVE_MUN": "006", "CVE_LOC": "0001", "CVE_ASEN": "0017", "CP": "66600", "FECHA_ACT": "11/2024", "INSTITUCIO": "SECRETARÍA DE DESARROLLO URBANO, OBRAS PÚBLICAS, ECOLOGÍA Y TRANSPORTE DE APODACA", "NOM_ASEN": "CABECERA MUNICIPAL (APODACA)", "TIPO": "COLONIA", "Shape_Leng": 10463.263806000001, "Shape_Area": 1836887.27205 }, "geometry": { "type": "Point", "coordinates": [ -100.18876, 25.78109 ] } },
{ "type": "Feature", "properties": { "id": "here:pds:place:484jx7ps-e165680139cc0875df65f3ab9439e9b8", "origin_id": 3044910, "title": "Universidad Metropolitana de Mty", "label": "Universidad Metropolitana de Mty, Calle 5 de Mayo, Apodaca Centro, 66600 Apodaca, NL, México", "distance": 253.0, "categories": "800-8200-0173", "CVEGEO": "1900600010017", "CVE_ENT": "19", "CVE_MUN": "006", "CVE_LOC": "0001", "CVE_ASEN": "0017", "CP": "66600", "FECHA_ACT": "11/2024", "INSTITUCIO": "SECRETARÍA DE DESARROLLO URBANO, OBRAS PÚBLICAS, ECOLOGÍA Y TRANSPORTE DE APODACA", "NOM_ASEN": "CABECERA MUNICIPAL (APODACA)", "TIPO": "COLONIA", "Shape_Leng": 10463.263806000001, "Shape_Area": 1836887.27205 }, "geometry": { "type": "Point", "coordinates": [ -100.18671, 25.78127 ] } },
{ "type": "Feature", "properties": { "id": "here:pds:place:484d408k-2bfbb6bfd35d0e91e5e0188c8bc0b08f", "origin_id": 3044910, "title": "Ctm Apodaca Educación Basica", "label": "Ctm Apodaca Educación Basica, Calle 5 de Mayo 162, Apodaca Centro, 66600 Apodaca, NL, México", "distance": 256.0, "categories": "800-8250-0000;800-8200-0000", "CVEGEO": "1900600010017", "CVE_ENT": "19", "CVE_MUN": "006", "CVE_LOC": "0001", "CVE_ASEN": "0017", "CP": "66600", "FECHA_ACT": "11/2024", "INSTITUCIO": "SECRETARÍA DE DESARROLLO URBANO, OBRAS PÚBLICAS, ECOLOGÍA Y TRANSPORTE DE APODACA", "NOM_ASEN": "CABECERA MUNICIPAL (APODACA)", "TIPO": "COLONIA", "Shape_Leng": 10463.263806000001, "Shape_Area": 1836887.27205 }, "geometry": { "type": "Point", "coordinates": [ -100.18693, 25.78137 ] } },
{ "type": "Feature", "properties": { "id": "here:pds:place:4849u8f8-3bf92c37da7a284f97531cd36c99ff06", "origin_id": 3044910, "title": "Instituto Pedagógico Apodaca", "label": "Instituto Pedagógico Apodaca, Calle Ignacio Aldama 105, Apodaca Centro, 66600 Apodaca, NL, México", "distance": 261.0, "categories": "800-8250-0000;700-7400-0286;800-8200-0000;800-8250-0287", "CVEGEO": "1900600010017", "CVE_ENT": "19", "CVE_MUN": "006", "CVE_LOC": "0001", "CVE_ASEN": "0017", "CP": "66600", "FECHA_ACT": "11/2024", "INSTITUCIO": "SECRETARÍA DE DESARROLLO URBANO, OBRAS PÚBLICAS, ECOLOGÍA Y TRANSPORTE DE APODACA", "NOM_ASEN": "CABECERA MUNICIPAL (APODACA)", "TIPO": "COLONIA", "Shape_Leng": 10463.263806000001, "Shape_Area": 1836887.27205 }, "geometry": { "type": "Point", "coordinates": [ -100.18725, 25.77685 ] } },
{ "type": "Feature", "properties": { "id": "here:pds:place:484jx7ps-6d52dfa715e90ea6aeabf41a8f5ef37b", "origin_id": 3044910, "title": "Tiendita Primaria Prof. Francisco Garza Villarreal", "label": "Tiendita Primaria Prof. Francisco Garza Villarreal, Avenida Ignacio Zaragoza, Apodaca Centro, 66600 Apodaca, NL, México", "distance": 278.0, "categories": "800-8250-0000;600-6000-0061", "CVEGEO": "1900600010017", "CVE_ENT": "19", "CVE_MUN": "006", "CVE_LOC": "0001", "CVE_ASEN": "0017", "CP": "66600", "FECHA_ACT": "11/2024", "INSTITUCIO": "SECRETARÍA DE DESARROLLO URBANO, OBRAS PÚBLICAS, ECOLOGÍA Y TRANSPORTE DE APODACA", "NOM_ASEN": "CABECERA MUNICIPAL (APODACA)", "TIPO": "COLONIA", "Shape_Leng": 10463.263806000001, "Shape_Area": 1836887.27205 }, "geometry": { "type": "Point", "coordinates": [ -100.18919, 25.78126 ] } },
{ "type": "Feature", "properties": { "id": "here:pds:place:4849u8f8-98764ba6a33d414ba00cbba8626c1f75", "origin_id": 3044910, "title": "Centro Infantil de Desarrollo Apodaca Sc", "label": "Centro Infantil de Desarrollo Apodaca Sc, Calle Ignacio Aldama 104, Apodaca Centro, 66600 Apodaca, NL, México", "distance": 280.0, "categories": "800-8250-0000;700-7400-0286", "CVEGEO": "1900600010017", "CVE_ENT": "19", "CVE_MUN": "006", "CVE_LOC": "0001", "CVE_ASEN": "0017", "CP": "66600", "FECHA_ACT": "11/2024", "INSTITUCIO": "SECRETARÍA DE DESARROLLO URBANO, OBRAS PÚBLICAS, ECOLOGÍA Y TRANSPORTE DE APODACA", "NOM_ASEN": "CABECERA MUNICIPAL (APODACA)", "TIPO": "COLONIA", "Shape_Leng": 10463.263806000001, "Shape_Area": 1836887.27205 }, "geometry": { "type": "Point", "coordinates": [ -100.18786, 25.77666 ] } },
{ "type": "Feature", "properties": { "id": "here:pds:place:484jx7ps-2dd052d0a4ee08b23589bb79381f85da", "origin_id": 3044910, "title": "Prim Profesor Moisés Sáenz Garza", "label": "Prim Profesor Moisés Sáenz Garza, Calle Padre Mier 301, Apodaca Centro, 66600 Apodaca, NL, México", "distance": 295.0, "categories": "800-8250-0000;100-1100-0010", "CVEGEO": "1900600010017", "CVE_ENT": "19", "CVE_MUN": "006", "CVE_LOC": "0001", "CVE_ASEN": "0017", "CP": "66600", "FECHA_ACT": "11/2024", "INSTITUCIO": "SECRETARÍA DE DESARROLLO URBANO, OBRAS PÚBLICAS, ECOLOGÍA Y TRANSPORTE DE APODACA", "NOM_ASEN": "CABECERA MUNICIPAL (APODACA)", "TIPO": "COLONIA", "Shape_Leng": 10463.263806000001, "Shape_Area": 1836887.27205 }, "geometry": { "type": "Point", "coordinates": [ -100.18509, 25.78046 ] } },
{ "type": "Feature", "properties": { "id": "here:pds:place:4849u8f2-79b4a13630df4d7b9825bad5e5f0431b", "origin_id": 3044910, "title": "Sec. 3 Moisés Sáenz Garza-Oficial", "label": "Sec. 3 Moisés Sáenz Garza-Oficial, Calle Padre Mier 301, Apodaca Centro, 66600 Apodaca, NL, México", "distance": 295.0, "categories": "800-8250-0288;800-8200-0000;800-8250-0000", "CVEGEO": "1900600010017", "CVE_ENT": "19", "CVE_MUN": "006", "CVE_LOC": "0001", "CVE_ASEN": "0017", "CP": "66600", "FECHA_ACT": "11/2024", "INSTITUCIO": "SECRETARÍA DE DESARROLLO URBANO, OBRAS PÚBLICAS, ECOLOGÍA Y TRANSPORTE DE APODACA", "NOM_ASEN": "CABECERA MUNICIPAL (APODACA)", "TIPO": "COLONIA", "Shape_Leng": 10463.263806000001, "Shape_Area": 1836887.27205 }, "geometry": { "type": "Point", "coordinates": [ -100.18509, 25.78046 ] } },
{ "type": "Feature", "properties": { "id": "here:pds:place:484jx7ps-0862d81c9ba6054c0875e4e822e91f8c", "origin_id": 3044910, "title": "Gral Juan N Méndez", "label": "Gral Juan N Méndez, Avenida Ignacio Zaragoza, Apodaca Centro, 66600 Apodaca, NL, México", "distance": 323.0, "categories": "800-8250-0000;800-8250-0287", "CVEGEO": "1900600010017", "CVE_ENT": "19", "CVE_MUN": "006", "CVE_LOC": "0001", "CVE_ASEN": "0017", "CP": "66600", "FECHA_ACT": "11/2024", "INSTITUCIO": "SECRETARÍA DE DESARROLLO URBANO, OBRAS PÚBLICAS, ECOLOGÍA Y TRANSPORTE DE APODACA", "NOM_ASEN": "CABECERA MUNICIPAL (APODACA)", "TIPO": "COLONIA", "Shape_Leng": 10463.263806000001, "Shape_Area": 1836887.27205 }, "geometry": { "type": "Point", "coordinates": [ -100.18932, 25.78167 ] } },
{ "type": "Feature", "properties": { "id": "here:pds:place:4849u8f8-986d3a919ca541678af72849fd7cc349", "origin_id": 3044910, "title": "Universidad Inernacional del Liderazgo y Desarrollo", "label": "Universidad Inernacional del Liderazgo y Desarrollo, Calle Porfirio Díaz 135, Apodaca Centro, 66600 Apodaca, NL, México", "distance": 362.0, "categories": "800-8250-0288;800-8250-0000", "CVEGEO": "1900600010017", "CVE_ENT": "19", "CVE_MUN": "006", "CVE_LOC": "0001", "CVE_ASEN": "0017", "CP": "66600", "FECHA_ACT": "11/2024", "INSTITUCIO": "SECRETARÍA DE DESARROLLO URBANO, OBRAS PÚBLICAS, ECOLOGÍA Y TRANSPORTE DE APODACA", "NOM_ASEN": "CABECERA MUNICIPAL (APODACA)", "TIPO": "COLONIA", "Shape_Leng": 10463.263806000001, "Shape_Area": 1836887.27205 }, "geometry": { "type": "Point", "coordinates": [ -100.19088, 25.78066 ] } },
{ "type": "Feature", "properties": { "id": "here:pds:place:4849u8f8-bccab5792c5489de24cb790a2d3d34ab", "origin_id": 3044910, "title": "Cer Apodaca", "label": "Cer Apodaca, Avenida Ignacio Zaragoza, Apodaca Centro, 66600 Apodaca, NL, México", "distance": 363.0, "categories": "800-8250-0000;800-8200-0000;800-8250-0288", "CVEGEO": "1900600010017", "CVE_ENT": "19", "CVE_MUN": "006", "CVE_LOC": "0001", "CVE_ASEN": "0017", "CP": "66600", "FECHA_ACT": "11/2024", "INSTITUCIO": "SECRETARÍA DE DESARROLLO URBANO, OBRAS PÚBLICAS, ECOLOGÍA Y TRANSPORTE DE APODACA", "NOM_ASEN": "CABECERA MUNICIPAL (APODACA)", "TIPO": "COLONIA", "Shape_Leng": 10463.263806000001, "Shape_Area": 1836887.27205 }, "geometry": { "type": "Point", "coordinates": [ -100.18951, 25.78198 ] } },
{ "type": "Feature", "properties": { "id": "here:pds:place:4849u8f8-c656a617785383b3276687f15c35a0bc", "origin_id": 3044910, "title": "Instituto Henry Hudson", "label": "Instituto Henry Hudson, Calle Mariano Matamoros 800, Apodaca Centro, 66600 Apodaca, NL, México", "distance": 377.0, "categories": "800-8250-0000", "CVEGEO": "1900600010017", "CVE_ENT": "19", "CVE_MUN": "006", "CVE_LOC": "0001", "CVE_ASEN": "0017", "CP": "66600", "FECHA_ACT": "11/2024", "INSTITUCIO": "SECRETARÍA DE DESARROLLO URBANO, OBRAS PÚBLICAS, ECOLOGÍA Y TRANSPORTE DE APODACA", "NOM_ASEN": "CABECERA MUNICIPAL (APODACA)", "TIPO": "COLONIA", "Shape_Leng": 10463.263806000001, "Shape_Area": 1836887.27205 }, "geometry": { "type": "Point", "coordinates": [ -100.19143, 25.77893 ] } },
{ "type": "Feature", "properties": { "id": "here:pds:place:484jx7ps-fde9e3725ca702195edcaf1d05539b37", "origin_id": 3044910, "title": "Instituto Moderno Apodaca", "label": "Instituto Moderno Apodaca, Calle Manuel Mariano Jiménez 212, Apodaca Centro, 66600 Apodaca, NL, México", "distance": 391.0, "categories": "800-8250-0000;700-7400-0286;800-8250-0287", "CVEGEO": "1900600010017", "CVE_ENT": "19", "CVE_MUN": "006", "CVE_LOC": "0001", "CVE_ASEN": "0017", "CP": "66600", "FECHA_ACT": "11/2024", "INSTITUCIO": "SECRETARÍA DE DESARROLLO URBANO, OBRAS PÚBLICAS, ECOLOGÍA Y TRANSPORTE DE APODACA", "NOM_ASEN": "CABECERA MUNICIPAL (APODACA)", "TIPO": "COLONIA", "Shape_Leng": 10463.263806000001, "Shape_Area": 1836887.27205 }, "geometry": { "type": "Point", "coordinates": [ -100.18478, 25.78153 ] } },
{ "type": "Feature", "properties": { "id": "here:pds:place:4849u8f8-33a62a17ef4ba6b0d94900c5521a6756", "origin_id": 3044910, "title": "Escuela Instituto Moderno Apodaca", "label": "Escuela Instituto Moderno Apodaca, Calle Manuel Mariano Jiménez 212, Apodaca Centro, 66600 Apodaca, NL, México", "distance": 391.0, "categories": "800-8250-0000", "CVEGEO": "1900600010017", "CVE_ENT": "19", "CVE_MUN": "006", "CVE_LOC": "0001", "CVE_ASEN": "0017", "CP": "66600", "FECHA_ACT": "11/2024", "INSTITUCIO": "SECRETARÍA DE DESARROLLO URBANO, OBRAS PÚBLICAS, ECOLOGÍA Y TRANSPORTE DE APODACA", "NOM_ASEN": "CABECERA MUNICIPAL (APODACA)", "TIPO": "COLONIA", "Shape_Leng": 10463.263806000001, "Shape_Area": 1836887.27205 }, "geometry": { "type": "Point", "coordinates": [ -100.18478, 25.78153 ] } },
{ "type": "Feature", "properties": { "id": "here:pds:place:484jx7ps-ddc4a50de1d30e4a3c1b9e345eecb440", "origin_id": 3044910, "title": "Profr Luis Tijerina Almaguer", "label": "Profr Luis Tijerina Almaguer, Calle Ignacio Aldama 600, Moderno Apodaca 1er Sector, 66600 Apodaca, NL, México", "distance": 504.0, "categories": "800-8250-0000;800-8250-0287", "CVEGEO": "1900600010137", "CVE_ENT": "19", "CVE_MUN": "006", "CVE_LOC": "0001", "CVE_ASEN": "0137", "CP": "66600", "FECHA_ACT": "11/2024", "INSTITUCIO": "SECRETARÍA DE DESARROLLO URBANO, OBRAS PÚBLICAS, ECOLOGÍA Y TRANSPORTE DE APODACA", "NOM_ASEN": "MODERNO APODACA PRIMER SECTOR", "TIPO": "COLONIA", "Shape_Leng": 1638.9048142900001, "Shape_Area": 90313.813643000001 }, "geometry": { "type": "Point", "coordinates": [ -100.18264, 25.7791 ] } },
{ "type": "Feature", "properties": { "id": "here:pds:place:4849u8f8-e4e61e4950e74d4584269d9f12fd5e21", "origin_id": 3044910, "title": "Instituto Integral de Belleza Elite", "label": "Instituto Integral de Belleza Elite, Calle 5 de Mayo 285A, Apodaca Centro, 66600 Apodaca, NL, México", "distance": 514.0, "categories": "800-8200-0000;800-8250-0000", "CVEGEO": "1900600010017", "CVE_ENT": "19", "CVE_MUN": "006", "CVE_LOC": "0001", "CVE_ASEN": "0017", "CP": "66600", "FECHA_ACT": "11/2024", "INSTITUCIO": "SECRETARÍA DE DESARROLLO URBANO, OBRAS PÚBLICAS, ECOLOGÍA Y TRANSPORTE DE APODACA", "NOM_ASEN": "CABECERA MUNICIPAL (APODACA)", "TIPO": "COLONIA", "Shape_Leng": 10463.263806000001, "Shape_Area": 1836887.27205 }, "geometry": { "type": "Point", "coordinates": [ -100.18849, 25.78373 ] } },
{ "type": "Feature", "properties": { "id": "here:pds:place:484jx7ps-3d45969592520bf05b2f3ed6d525f29c", "origin_id": 3044910, "title": "Colegio Adriaen Hanneman", "label": "Colegio Adriaen Hanneman, Calle San Francisco 105, Apodaca Centro, 66600 Apodaca, NL, México", "distance": 538.0, "categories": "800-8250-0000;700-7400-0286;800-8200-0000;800-8250-0287", "CVEGEO": "1900600010017", "CVE_ENT": "19", "CVE_MUN": "006", "CVE_LOC": "0001", "CVE_ASEN": "0017", "CP": "66600", "FECHA_ACT": "11/2024", "INSTITUCIO": "SECRETARÍA DE DESARROLLO URBANO, OBRAS PÚBLICAS, ECOLOGÍA Y TRANSPORTE DE APODACA", "NOM_ASEN": "CABECERA MUNICIPAL (APODACA)", "TIPO": "COLONIA", "Shape_Leng": 10463.263806000001, "Shape_Area": 1836887.27205 }, "geometry": { "type": "Point", "coordinates": [ -100.18428, 25.78292 ] } },
{ "type": "Feature", "properties": { "id": "here:pds:place:4849u8f8-5d060ff6a885297063f86f79c899c192", "origin_id": 3044910, "title": "Instituto Carlos Monsivais", "label": "Instituto Carlos Monsivais, Calle General Francisco Naranjo 302, Apodaca Centro, 66600 Apodaca, NL, México", "distance": 551.0, "categories": "800-8250-0000;700-7400-0286;800-8200-0000;800-8250-0287", "CVEGEO": "1900600010017", "CVE_ENT": "19", "CVE_MUN": "006", "CVE_LOC": "0001", "CVE_ASEN": "0017", "CP": "66600", "FECHA_ACT": "11/2024", "INSTITUCIO": "SECRETARÍA DE DESARROLLO URBANO, OBRAS PÚBLICAS, ECOLOGÍA Y TRANSPORTE DE APODACA", "NOM_ASEN": "CABECERA MUNICIPAL (APODACA)", "TIPO": "COLONIA", "Shape_Leng": 10463.263806000001, "Shape_Area": 1836887.27205 }, "geometry": { "type": "Point", "coordinates": [ -100.19257, 25.78142 ] } },
{ "type": "Feature", "properties": { "id": "here:pds:place:4849u8f8-0620669d6b379b4289ad615724d17be0", "origin_id": 3044910, "title": "Pro G. Participativa de Apodaca", "label": "Pro G. Participativa de Apodaca, Calle Chapultepec 215, Apodaca Centro, 66600 Apodaca, NL, México", "distance": 596.0, "categories": "800-8250-0000;700-7400-0286", "CVEGEO": "1900600010017", "CVE_ENT": "19", "CVE_MUN": "006", "CVE_LOC": "0001", "CVE_ASEN": "0017", "CP": "66600", "FECHA_ACT": "11/2024", "INSTITUCIO": "SECRETARÍA DE DESARROLLO URBANO, OBRAS PÚBLICAS, ECOLOGÍA Y TRANSPORTE DE APODACA", "NOM_ASEN": "CABECERA MUNICIPAL (APODACA)", "TIPO": "COLONIA", "Shape_Leng": 10463.263806000001, "Shape_Area": 1836887.27205 }, "geometry": { "type": "Point", "coordinates": [ -100.18306, 25.78256 ] } },
{ "type": "Feature", "properties": { "id": "here:pds:place:484jx7ps-3af8052f181c02bcc6424d0f7363564e", "origin_id": 3044910, "title": "Jonas García", "label": "Jonas García, Calle Mariano Matamoros, Apodaca Centro, 66600 Apodaca, NL, México", "distance": 624.0, "categories": "800-8250-0000;700-7400-0286", "CVEGEO": "1900600010017", "CVE_ENT": "19", "CVE_MUN": "006", "CVE_LOC": "0001", "CVE_ASEN": "0017", "CP": "66600", "FECHA_ACT": "11/2024", "INSTITUCIO": "SECRETARÍA DE DESARROLLO URBANO, OBRAS PÚBLICAS, ECOLOGÍA Y TRANSPORTE DE APODACA", "NOM_ASEN": "CABECERA MUNICIPAL (APODACA)", "TIPO": "COLONIA", "Shape_Leng": 10463.263806000001, "Shape_Area": 1836887.27205 }, "geometry": { "type": "Point", "coordinates": [ -100.1832, 25.78308 ] } },
{ "type": "Feature", "properties": { "id": "here:pds:place:484jx7ps-ca2ea971cbcb0650bea46b80d8cfbd14", "origin_id": 3044910, "title": "Escuela Prim Club de Leónes Apodaca", "label": "Escuela Prim Club de Leónes Apodaca, Calle Francisco I. Madero, Apodaca Centro, 66600 Apodaca, NL, México", "distance": 626.0, "categories": "800-8250-0000", "CVEGEO": "1900600010017", "CVE_ENT": "19", "CVE_MUN": "006", "CVE_LOC": "0001", "CVE_ASEN": "0017", "CP": "66600", "FECHA_ACT": "11/2024", "INSTITUCIO": "SECRETARÍA DE DESARROLLO URBANO, OBRAS PÚBLICAS, ECOLOGÍA Y TRANSPORTE DE APODACA", "NOM_ASEN": "CABECERA MUNICIPAL (APODACA)", "TIPO": "COLONIA", "Shape_Leng": 10463.263806000001, "Shape_Area": 1836887.27205 }, "geometry": { "type": "Point", "coordinates": [ -100.19364, 25.77751 ] } },
{ "type": "Feature", "properties": { "id": "here:pds:place:484jx7ps-48e3d0b57ac40c66682ee927f7d89429", "origin_id": 3044910, "title": "Escuela Primaria Luis Elizondo", "label": "Escuela Primaria Luis Elizondo, Calle Mariano Matamoros 600, Apodaca Centro, 66600 Apodaca, NL, México", "distance": 640.0, "categories": "800-8250-0000;800-8250-0287", "CVEGEO": "1900600010017", "CVE_ENT": "19", "CVE_MUN": "006", "CVE_LOC": "0001", "CVE_ASEN": "0017", "CP": "66600", "FECHA_ACT": "11/2024", "INSTITUCIO": "SECRETARÍA DE DESARROLLO URBANO, OBRAS PÚBLICAS, ECOLOGÍA Y TRANSPORTE DE APODACA", "NOM_ASEN": "CABECERA MUNICIPAL (APODACA)", "TIPO": "COLONIA", "Shape_Leng": 10463.263806000001, "Shape_Area": 1836887.27205 }, "geometry": { "type": "Point", "coordinates": [ -100.1938, 25.77753 ] } },
{ "type": "Feature", "properties": { "id": "here:pds:place:4849u8f8-6c6f938ae92e458fa9dafbdb0b2925d8", "origin_id": 3044910, "title": "Fast English", "label": "Fast English, Calle Garza García 820, Moderno Apodaca 2do Sector, 66600 Apodaca, NL, México", "distance": 660.0, "categories": "800-8200-0362;800-8200-0000", "CVEGEO": "1900600010136", "CVE_ENT": "19", "CVE_MUN": "006", "CVE_LOC": "0001", "CVE_ASEN": "0136", "CP": "66600", "FECHA_ACT": "11/2024", "INSTITUCIO": "SECRETARÍA DE DESARROLLO URBANO, OBRAS PÚBLICAS, ECOLOGÍA Y TRANSPORTE DE APODACA", "NOM_ASEN": "MODERNO APODACA SEGUNDO SECTOR", "TIPO": "COLONIA", "Shape_Leng": 993.47481594600004, "Shape_Area": 58902.742470199999 }, "geometry": { "type": "Point", "coordinates": [ -100.18166, 25.78161 ] } },
{ "type": "Feature", "properties": { "id": "here:pds:place:4849u8f8-728fddc09b79c774f41910034f707714", "origin_id": 3044910, "title": "Cam Prof Humberto Ramos Lozano", "label": "Cam Prof Humberto Ramos Lozano, Calle Ignacio Allende, Apodaca Centro, 66600 Apodaca, NL, México", "distance": 671.0, "categories": "800-8250-0000;800-8200-0000", "CVEGEO": "1900600010017", "CVE_ENT": "19", "CVE_MUN": "006", "CVE_LOC": "0001", "CVE_ASEN": "0017", "CP": "66600", "FECHA_ACT": "11/2024", "INSTITUCIO": "SECRETARÍA DE DESARROLLO URBANO, OBRAS PÚBLICAS, ECOLOGÍA Y TRANSPORTE DE APODACA", "NOM_ASEN": "CABECERA MUNICIPAL (APODACA)", "TIPO": "COLONIA", "Shape_Leng": 10463.263806000001, "Shape_Area": 1836887.27205 }, "geometry": { "type": "Point", "coordinates": [ -100.18217, 25.78261 ] } },
{ "type": "Feature", "properties": { "id": "here:pds:place:484jx7ps-71745fc960550752cb30a379eaa34f7b", "origin_id": 3044910, "title": "Instituto Pedagogico de Apodaca", "label": "Instituto Pedagogico de Apodaca, Calle Garza García, Apodaca Centro, 66600 Apodaca, NL, México", "distance": 679.0, "categories": "800-8200-0173", "CVEGEO": "1900600010017", "CVE_ENT": "19", "CVE_MUN": "006", "CVE_LOC": "0001", "CVE_ASEN": "0017", "CP": "66600", "FECHA_ACT": "11/2024", "INSTITUCIO": "SECRETARÍA DE DESARROLLO URBANO, OBRAS PÚBLICAS, ECOLOGÍA Y TRANSPORTE DE APODACA", "NOM_ASEN": "CABECERA MUNICIPAL (APODACA)", "TIPO": "COLONIA", "Shape_Leng": 10463.263806000001, "Shape_Area": 1836887.27205 }, "geometry": { "type": "Point", "coordinates": [ -100.19339, 25.77589 ] } },
{ "type": "Feature", "properties": { "id": "here:pds:place:484jx7ps-a03bd1959fde04e3695f2c6d8466123f", "origin_id": 3044910, "title": "Preparatoria No 1 Uanl", "label": "Preparatoria No 1 Uanl, Calle José Elías Flores, Apodaca Centro, 66600 Apodaca, NL, México", "distance": 728.0, "categories": "800-8200-0173", "CVEGEO": "1900600010017", "CVE_ENT": "19", "CVE_MUN": "006", "CVE_LOC": "0001", "CVE_ASEN": "0017", "CP": "66600", "FECHA_ACT": "11/2024", "INSTITUCIO": "SECRETARÍA DE DESARROLLO URBANO, OBRAS PÚBLICAS, ECOLOGÍA Y TRANSPORTE DE APODACA", "NOM_ASEN": "CABECERA MUNICIPAL (APODACA)", "TIPO": "COLONIA", "Shape_Leng": 10463.263806000001, "Shape_Area": 1836887.27205 }, "geometry": { "type": "Point", "coordinates": [ -100.18248, 25.78376 ] } },
{ "type": "Feature", "properties": { "id": "here:pds:place:484jx7ps-df648c446847049561521e1b41430112", "origin_id": 3044910, "title": "Preparatoria Uanl", "label": "Preparatoria Uanl, Avenida Libramiento Norte, Apodaca Centro, 66600 Apodaca, NL, México", "distance": 894.0, "categories": "800-8200-0173", "CVEGEO": "1900600010017", "CVE_ENT": "19", "CVE_MUN": "006", "CVE_LOC": "0001", "CVE_ASEN": "0017", "CP": "66600", "FECHA_ACT": "11/2024", "INSTITUCIO": "SECRETARÍA DE DESARROLLO URBANO, OBRAS PÚBLICAS, ECOLOGÍA Y TRANSPORTE DE APODACA", "NOM_ASEN": "CABECERA MUNICIPAL (APODACA)", "TIPO": "COLONIA", "Shape_Leng": 10463.263806000001, "Shape_Area": 1836887.27205 }, "geometry": { "type": "Point", "coordinates": [ -100.18106, 25.78458 ] } }
]
}
