{
"type": "FeatureCollection",
"name": "07_POI_TiendasDepto_PuebloNuevo",
"crs": { "type": "name", "properties": { "name": "urn:ogc:def:crs:OGC:1.3:CRS84" } },
"features": [
{ "type": "Feature", "properties": { "id": "here:pds:place:484jx7ps-2a04d5cf495f08505641a0760ed9db0d", "origin_id": 3016431, "title": "Soriana Híper", "label": "Soriana Híper, Pueblo Huinalá, 66640 Apodaca, NL, México", "distance": 14068.0, "categories": "600-6200-0063", "CVEGEO": "1900600010310", "CVE_ENT": "19", "CVE_MUN": "006", "CVE_LOC": "0001", "CVE_ASEN": "0310", "CP": "66634", "FECHA_ACT": "11/2024", "INSTITUCIO": "SECRETARÍA DE DESARROLLO URBANO, OBRAS PÚBLICAS, ECOLOGÍA Y TRANSPORTE DE APODACA", "NOM_ASEN": "ENCINOS RESIDENCIAL SEGUNDO SECTOR", "TIPO": "COLONIA", "Shape_Leng": 2547.82439445, "Shape_Area": 391999.12128000002 }, "geometry": { "type": "Point", "coordinates": [ -100.17556, 25.74336 ] } },
{ "type": "Feature", "properties": { "id": "here:pds:place:4849u8f9-a6732d7a130849979c94f010a5eccd48", "origin_id": 3016431, "title": "Soriana Súper", "label": "Soriana Súper, Apodaca Industrial Park, 66626 Apodaca, NL, México", "distance": 14178.0, "categories": "600-6200-0063", "CVEGEO": "1900600010479", "CVE_ENT": "19", "CVE_MUN": "006", "CVE_LOC": "0001", "CVE_ASEN": "0479", "CP": "66626", "FECHA_ACT": "11/2024", "INSTITUCIO": "SECRETARÍA DE DESARROLLO URBANO, OBRAS PÚBLICAS, ECOLOGÍA Y TRANSPORTE DE APODACA", "NOM_ASEN": "PARQUE INDUSTRIAL STIVA", "TIPO": "ZONA INDUSTRIAL", "Shape_Leng": 10942.2945578, "Shape_Area": 5326225.1582000004 }, "geometry": { "type": "Point", "coordinates": [ -100.14675, 25.76406 ] } },
{ "type": "Feature", "properties": { "id": "here:pds:place:4849u8f9-a0b57342133b499e8bb7c828e7b01a2c", "origin_id": 3016431, "title": "Soriana Híper", "label": "Soriana Híper, Apodaca Industrial Park, 66626 Apodaca, NL, México", "distance": 14178.0, "categories": "600-6200-0063", "CVEGEO": "1900600010479", "CVE_ENT": "19", "CVE_MUN": "006", "CVE_LOC": "0001", "CVE_ASEN": "0479", "CP": "66626", "FECHA_ACT": "11/2024", "INSTITUCIO": "SECRETARÍA DE DESARROLLO URBANO, OBRAS PÚBLICAS, ECOLOGÍA Y TRANSPORTE DE APODACA", "NOM_ASEN": "PARQUE INDUSTRIAL STIVA", "TIPO": "ZONA INDUSTRIAL", "Shape_Leng": 10942.2945578, "Shape_Area": 5326225.1582000004 }, "geometry": { "type": "Point", "coordinates": [ -100.14675, 25.76406 ] } },
{ "type": "Feature", "properties": { "id": "here:pds:place:484jx7ps-7bb05a2f6287083935571a9251f7f2c5", "origin_id": 3016431, "title": "Coppel", "label": "Coppel, Pueblo Huinalá, 66640 Apodaca, NL, México", "distance": 14208.0, "categories": "600-6200-0063", "CVEGEO": "1900600010310", "CVE_ENT": "19", "CVE_MUN": "006", "CVE_LOC": "0001", "CVE_ASEN": "0310", "CP": "66634", "FECHA_ACT": "11/2024", "INSTITUCIO": "SECRETARÍA DE DESARROLLO URBANO, OBRAS PÚBLICAS, ECOLOGÍA Y TRANSPORTE DE APODACA", "NOM_ASEN": "ENCINOS RESIDENCIAL SEGUNDO SECTOR", "TIPO": "COLONIA", "Shape_Leng": 2547.82439445, "Shape_Area": 391999.12128000002 }, "geometry": { "type": "Point", "coordinates": [ -100.17594, 25.74479 ] } },
{ "type": "Feature", "properties": { "id": "here:pds:place:484jx7ps-470840d8b21b04fae95440a1436fdb70", "origin_id": 3016431, "title": "Elektra", "label": "Elektra, NL-28, Parque Industrial Huinalá, 66645 Apodaca, NL, México", "distance": 15122.0, "categories": "600-6200-0063", "CVEGEO": "1900600010412", "CVE_ENT": "19", "CVE_MUN": "006", "CVE_LOC": "0001", "CVE_ASEN": "0412", "CP": "66645", "FECHA_ACT": "11/2024", "INSTITUCIO": "SECRETARÍA DE DESARROLLO URBANO, OBRAS PÚBLICAS, ECOLOGÍA Y TRANSPORTE DE APODACA", "NOM_ASEN": "PARQUE INDUSTRIAL EL SABINAL", "TIPO": "ZONA INDUSTRIAL", "Shape_Leng": 4442.3587141099997, "Shape_Area": 1094081.1213100001 }, "geometry": { "type": "Point", "coordinates": [ -100.17242, 25.75857 ] } },
{ "type": "Feature", "properties": { "id": "here:pds:place:484jx7ps-ed6f79fa753504600d4e87050f35e4ea", "origin_id": 3016431, "title": "Coppel", "label": "Coppel, Miguel Alemán 789, Pueblo Huinalá, 66640 Apodaca, NL, México", "distance": 16716.0, "categories": "600-6200-0063", "CVEGEO": "1900600010241", "CVE_ENT": "19", "CVE_MUN": "006", "CVE_LOC": "0001", "CVE_ASEN": "0241", "CP": "00000", "FECHA_ACT": "11/2024", "INSTITUCIO": "SECRETARÍA DE DESARROLLO URBANO, OBRAS PÚBLICAS, ECOLOGÍA Y TRANSPORTE DE APODACA", "NOM_ASEN": "NINGUNO", "TIPO": "NINGUNO", "Shape_Leng": 9310.7570935599997, "Shape_Area": 3306396.4154300001 }, "geometry": { "type": "Point", "coordinates": [ -100.1921, 25.76208 ] } },
{ "type": "Feature", "properties": { "id": "here:pds:place:484jx7ps-376cc59e92d408960e4732de24eb0725", "origin_id": 3016431, "title": "Soriana Híper", "label": "Soriana Híper, Avenida Miguel Alemán, Parque Industrial Kalos, 66600 Apodaca, NL, México", "distance": 16904.0, "categories": "600-6200-0063", "CVEGEO": "1900600010241", "CVE_ENT": "19", "CVE_MUN": "006", "CVE_LOC": "0001", "CVE_ASEN": "0241", "CP": "00000", "FECHA_ACT": "11/2024", "INSTITUCIO": "SECRETARÍA DE DESARROLLO URBANO, OBRAS PÚBLICAS, ECOLOGÍA Y TRANSPORTE DE APODACA", "NOM_ASEN": "NINGUNO", "TIPO": "NINGUNO", "Shape_Leng": 9310.7570935599997, "Shape_Area": 3306396.4154300001 }, "geometry": { "type": "Point", "coordinates": [ -100.19286, 25.76376 ] } },
{ "type": "Feature", "properties": { "id": "here:pds:place:4849u8f8-fedddc2fcdf6c0474c8b6b6dfcf0c61e", "origin_id": 3016431, "title": "Coppel", "label": "Coppel, Calle Chapultepec, Moderno Apodaca 1er Sector, 66600 Apodaca, NL, México", "distance": 17406.0, "categories": "600-6200-0063", "CVEGEO": "1900600010137", "CVE_ENT": "19", "CVE_MUN": "006", "CVE_LOC": "0001", "CVE_ASEN": "0137", "CP": "66600", "FECHA_ACT": "11/2024", "INSTITUCIO": "SECRETARÍA DE DESARROLLO URBANO, OBRAS PÚBLICAS, ECOLOGÍA Y TRANSPORTE DE APODACA", "NOM_ASEN": "MODERNO APODACA PRIMER SECTOR", "TIPO": "COLONIA", "Shape_Leng": 1638.9048142900001, "Shape_Area": 90313.813643000001 }, "geometry": { "type": "Point", "coordinates": [ -100.18067, 25.7788 ] } },
{ "type": "Feature", "properties": { "id": "here:pds:place:484jx7ps-8675ba4fdcaa0bd075942e336d7c6c41", "origin_id": 3016431, "title": "Elektra", "label": "Elektra, Avenida Ignacio Zaragoza 105A, Apodaca Centro, 66600 Apodaca, NL, México", "distance": 18080.0, "categories": "600-6200-0063", "CVEGEO": "1900600010017", "CVE_ENT": "19", "CVE_MUN": "006", "CVE_LOC": "0001", "CVE_ASEN": "0017", "CP": "66600", "FECHA_ACT": "11/2024", "INSTITUCIO": "SECRETARÍA DE DESARROLLO URBANO, OBRAS PÚBLICAS, ECOLOGÍA Y TRANSPORTE DE APODACA", "NOM_ASEN": "CABECERA MUNICIPAL (APODACA)", "TIPO": "COLONIA", "Shape_Leng": 10463.263806000001, "Shape_Area": 1836887.27205 }, "geometry": { "type": "Point", "coordinates": [ -100.18865, 25.78094 ] } }
]
}
